{"type":"Feature","geometry":{"type":"MultiPolygon","coordinates":[[[[-0.01312895030569,51.468936535864266],[-0.013476075516447,51.46876702042818],[-0.014107983131013,51.46847197112521],[-0.014493811634043,51.4683076932638],[-0.014652526523384,51.46823396486921],[-0.015026711494981,51.46803973072204],[-0.015090133747074,51.4680363094409],[-0.015301236738316,51.46815046209619],[-0.015456186150553,51.46826195571557],[-0.015559709101951,51.468330235095685],[-0.015806661911053,51.468480055178006],[-0.015904448925508,51.46854922608335],[-0.016269654657411,51.46886026175654],[-0.016416324386547,51.46899579744662],[-0.016467328452007,51.46904880319084],[-0.016558940810631,51.46922754876942],[-0.016949353319728,51.46905605839381],[-0.017113892319697,51.46924772420278],[-0.017140419222755,51.46929851763036],[-0.01716164149804,51.469340231196945],[-0.017161563597801,51.46934202790721],[-0.017273870088227,51.46941045428352],[-0.017509005492202,51.46943330988025],[-0.017743907510845,51.46946155514039],[-0.017887181788317,51.46947836171067],[-0.018200427588953,51.469526000718574],[-0.018473366170696,51.46960523223281],[-0.018700574059537,51.469712458724636],[-0.01911795266563,51.46994884983173],[-0.019018183887437,51.4700595408031],[-0.01902091428432,51.47006228397854],[-0.019166838531493,51.47025093522977],[-0.019272630402463,51.47050004119318],[-0.019199945015498,51.47055005695583],[-0.019090316467835,51.4705868622979],[-0.019031690211702,51.470611044109226],[-0.018937476770844,51.4705249449206],[-0.018671669246949,51.47064541605603],[-0.018792467358176,51.47074814694719],[-0.018945154265938,51.470879375864804],[-0.018981821289467,51.47106339417353],[-0.018958533977265,51.47106929378178],[-0.018827583097464,51.47110223244411],[-0.01888423137617,51.47118949497484],[-0.019023232470831,51.47113790288897],[-0.019109977152304,51.47122926988191],[-0.01915296666645,51.47146742564764],[-0.019285253890544,51.471938136452145],[-0.019319177133034,51.471985458243054],[-0.019345373879761,51.47201107317661],[-0.019398543675182,51.47204712281561],[-0.019893279536319,51.472027520137445],[-0.019999270122088,51.47204189634786],[-0.020051989271321,51.47205546274705],[-0.020109979021128,51.47207891737117],[-0.020145147876853,51.472097491530064],[-0.020245022434293,51.47218458429979],[-0.020299708544189,51.47228709619662],[-0.020327645064108,51.47237126603435],[-0.020337169357358,51.472417276521355],[-0.020155956495212,51.4726128984691],[-0.020082685176201,51.472676390079926],[-0.02004162871144,51.47272523236137],[-0.020006039217191,51.472782168170916],[-0.01998311083231,51.47284830792329],[-0.019978378760708,51.47292194707874],[-0.019990012971309,51.47298777151125],[-0.020004504326326,51.47301777357261],[-0.02005058273974,51.473083280669755],[-0.020118037669895,51.473123976368356],[-0.020225826074408,51.47315995902691],[-0.020327548383387,51.47317426284691],[-0.020553787129616,51.47316999158121],[-0.020620866959287,51.473183710264976],[-0.020647570642955,51.473197646284206],[-0.020665615663673,51.47321413315876],[-0.020736180613834,51.47334756923177],[-0.020750661377724,51.47341074459279],[-0.020767928818391,51.473445198581445],[-0.020796587697412,51.47348254190624],[-0.020836597175717,51.47352097584332],[-0.020934445257987,51.47358915450106],[-0.021052264202685,51.47366225512733],[-0.021141078170333,51.47370600777541],[-0.021234554144414,51.47374354594744],[-0.021463108575805,51.473817526102316],[-0.021644986763508,51.47387543499428],[-0.021577643407086,51.47393363347817],[-0.021772396998597,51.47402601181448],[-0.021870772874915,51.47394756960688],[-0.021885052776631,51.47395230559772],[-0.022032012868431,51.47401600773773],[-0.022101514336577,51.47403965555498],[-0.022188454106466,51.47406090046259],[-0.022341479369053,51.47408595707894],[-0.022449363390777,51.47408687778339],[-0.022506458617972,51.47396638418549],[-0.022672683709004,51.4739854598166],[-0.022617793468502,51.47408792052787],[-0.022611593627293,51.47409950312818],[-0.02264597414697,51.47427089535495],[-0.022810972710982,51.474282668094716],[-0.022803121885488,51.474464226130166],[-0.022801711905403,51.47453252730275],[-0.022830534350723,51.47473088600275],[-0.022930542795901,51.47508147918143],[-0.022918529667492,51.475194552170386],[-0.022924504408138,51.4752540776396],[-0.022887143074223,51.475319075525974],[-0.022767617386295,51.47535391941397],[-0.022763188677893,51.47535474374057],[-0.022527928450559,51.47536695829183],[-0.022318185055747,51.47539039093704],[-0.02215873282882,51.47544793505061],[-0.022026349616117,51.47547806622838],[-0.021799749692737,51.475490425424084],[-0.02159920866254,51.47549872883902],[-0.021390045347693,51.47550598739157],[-0.02107541054238,51.475522343478744],[-0.020943844998202,51.47553630501324],[-0.020846477009758,51.47558860220174],[-0.020746131493704,51.475679506587575],[-0.020707481389614,51.47577145241754],[-0.020652442238719,51.475847029230835],[-0.020700632930491,51.475929652919106],[-0.020727305316138,51.4761144007597],[-0.020753082115056,51.47621561520691],[-0.020756655381644,51.476234554790274],[-0.020768453639372,51.47635971669468],[-0.020790392986179,51.47645358434769],[-0.020791622313462,51.47645810016202],[-0.020775082298635,51.47650555851624],[-0.020760438564151,51.47654486786558],[-0.020670290510978,51.47663055025493],[-0.020578370267348,51.47672699080656],[-0.020453457534982,51.476817570087846],[-0.02033675822521,51.476885722704736],[-0.02021252532597,51.47692767663596],[-0.020045633007997,51.47698958734182],[-0.019895067195205,51.47704188440237],[-0.019710009155868,51.477092789596156],[-0.019561230756714,51.477101064806114],[-0.019411831539903,51.477126410578975],[-0.019261770526526,51.47716702819576],[-0.019165097718459,51.47720315352522],[-0.01911834479839,51.477251809340714],[-0.019097637535588,51.47733237062349],[-0.019067423039334,51.47739667895007],[-0.019082338830229,51.477518297650334],[-0.019095669005816,51.47757785769245],[-0.01916585278901,51.47778590620762],[-0.019201763336406,51.47795462822343],[-0.0191665890194,51.47816629082206],[-0.019133907363308,51.47832315576006],[-0.019118628626077,51.47847572974199],[-0.019139318019759,51.47859564793049],[-0.019128331249718,51.478783445802],[-0.019131328623379,51.47894720659097],[-0.019061613981242,51.479194156177506],[-0.019029281480076,51.47934293585698],[-0.018997723368909,51.47940533352816],[-0.018964018161783,51.47945151269239],[-0.018897894102099,51.479516922358144],[-0.018633030657185,51.47971301645163],[-0.018572640167321,51.47977762381387],[-0.0185176113953,51.47981714941237],[-0.018443912721677,51.4798545614356],[-0.018376647248674,51.479877787844096],[-0.01829241408861,51.479895243459836],[-0.01795165126255,51.47991645390652],[-0.017768568116756,51.47991875291222],[-0.017644419998729,51.4799256441169],[-0.017463640920659,51.479943264812526],[-0.017231460409103,51.47998518835927],[-0.017105597537964,51.48003160654459],[-0.01702735296775,51.48007523389317],[-0.016961769057301,51.48012536840643],[-0.016910345492529,51.48018302438382],[-0.016860058730063,51.480280166212665],[-0.016859746959725,51.48028735303895],[-0.017067416115566,51.48038076655958],[-0.01711651893744,51.48040946635861],[-0.017644543419005,51.480719653898916],[-0.017875316056724,51.48088007337406],[-0.01816134544761,51.480858836997655],[-0.018400828741999,51.480848500438896],[-0.018583780557439,51.4808164409012],[-0.018727689529344,51.480783811251314],[-0.018934628157756,51.48072707405075],[-0.020014588961846,51.48036584309218],[-0.020418001350735,51.48023061084846],[-0.020367363248107,51.47993568905734],[-0.022523505500929,51.47969958272281],[-0.023070886699309,51.47962871134256],[-0.023120719544901,51.48024195834114],[-0.023161284865128,51.48073727848448],[-0.024719785636035,51.48119695766301],[-0.026408639181139,51.48150957422089],[-0.026368351971339,51.48157632193039],[-0.026065109498993,51.48182842432231],[-0.025952079968688,51.48194348276682],[-0.025882906427621,51.48204390640265],[-0.025819069906615,51.482188471401194],[-0.025739169842228,51.48257298164921],[-0.025578105651493,51.48343439898044],[-0.025295908996651,51.4841967727905],[-0.025289582778863,51.48434320502136],[-0.02522214220871,51.48463703467962],[-0.025207117526912,51.484984788720304],[-0.025201250152446,51.48502163924591],[-0.025029797313097,51.48529025278663],[-0.024847252236836,51.485546182982105],[-0.024759927569308,51.485667966353724],[-0.024733850573333,51.4857052855203],[-0.024611905395192,51.48586145708586],[-0.024201680850267,51.48618637026698],[-0.02344407147167,51.48678600805139],[-0.023018148778832,51.48657565120223],[-0.021883916757895,51.486091553710004],[-0.021391327975336,51.485893461425],[-0.021080917127324,51.48577494764209],[-0.020020325922219,51.48538745972418],[-0.019472951896788,51.485223495581785],[-0.018968949966827,51.48508642287301],[-0.018813781783516,51.48504424468251],[-0.01803129643566,51.48482236026462],[-0.017650340190178,51.48477276773117],[-0.017451298748629,51.48477839260862],[-0.017428238008545,51.484778901705205],[-0.0167865485006,51.484695230123066],[-0.016586062664467,51.48466846467188],[-0.016546028930936,51.484663292415696],[-0.016362633356446,51.48463951271076],[-0.015933004392902,51.48461696051679],[-0.015662067790786,51.48458540530765],[-0.015473739547724,51.48457952096934],[-0.015134226386244,51.484568380147735],[-0.014802265932479,51.48455287115391],[-0.014557299053625,51.484555016515465],[-0.013802518409195,51.4845215562392],[-0.013192679130956,51.48450313331148],[-0.012887154352971,51.48450784509228],[-0.012785506987683,51.484526799706266],[-0.01105767783491,51.48467820532948],[-0.010831828331052,51.48470494052751],[-0.010605939474139,51.48473257363665],[-0.007958084998016,51.4852083270829],[-0.007464604960863,51.48535915746591],[-0.006966775158157,51.48551161997708],[-0.006736151562915,51.48558231780513],[-0.006244388918966,51.48569631275287],[-0.005926665565465,51.485781710189954],[-0.005650437737256,51.485871408614976],[-0.00555535700325,51.48590575190188],[-0.005381209685007,51.48596940648631],[-0.005143002067597,51.48608042778053],[-0.00474496407799,51.48625624485915],[-0.004554877973624,51.48632313315781],[-0.003410369037054,51.48690257296746],[-0.002953244427699,51.487144713993565],[-0.00217521549156,51.487642279733905],[-0.001745606830519,51.488015331745004],[-0.001476456414793,51.48830660991319],[-0.001177821741556,51.488712548465806],[-0.000941371046736,51.489111365400404],[-0.000704012977496,51.4895335407306],[-0.00058094746922,51.48984348981549],[-0.00051011812432,51.490077913393904],[-0.000475681830885,51.490305765409275],[-0.000447136310281,51.49066227672591],[-0.000448803284363,51.49082232946966],[-0.000449101793747,51.49091322477467],[-0.000415327346406,51.491389215610894],[-0.000676838982463,51.492160802437176],[-0.000802241668698,51.492554999981344],[-0.001024414196223,51.49307491079132],[-0.001081648847754,51.49331421470856],[-0.00121367924105,51.49348916562206],[-0.001441037720418,51.49385812981348],[-0.001600901425422,51.494089293401416],[-0.002020141721976,51.49455232654273],[-0.002111885436456,51.4946599731282],[-0.002142237128649,51.49469114656463],[-0.002210473176206,51.49477681626169],[-0.002308909092408,51.494899859904926],[-0.002469801867369,51.49510766543549],[-0.002824201740388,51.495668572204295],[-0.003658211107109,51.49712245120135],[-0.004005533859491,51.49761490867192],[-0.004163433334618,51.497924249045695],[-0.004331200890271,51.49827151560057],[-0.004377019146555,51.49837837869443],[-0.004476621247269,51.49863548282051],[-0.004603250217603,51.49900272612244],[-0.004946991408135,51.50013809240497],[-0.004994442814675,51.50037084455412],[-0.005082729238686,51.5007267366563],[-0.005179497444196,51.50088570972213],[-0.005178136653596,51.500949516359526],[-0.005177804157525,51.5010224204998],[-0.005177071035007,51.50107185363633],[-0.005175394903107,51.50124353623068],[-0.005137050337328,51.50146053452543],[-0.005080348891946,51.50157284535477],[-0.005035392687003,51.501677354766166],[-0.004937987496988,51.50182942857248],[-0.004863125133125,51.50196039946324],[-0.004821948489528,51.50211163176233],[-0.004667646177299,51.50251095422921],[-0.004562293877949,51.50280952118071],[-0.004510459502175,51.50294088367598],[-0.004326040295699,51.50323810498014],[-0.004034248715986,51.50361620756331],[-0.003717177639932,51.503914766154345],[-0.003554483831074,51.504111576965784],[-0.003362935137068,51.504305289153756],[-0.003228443132496,51.50448199232092],[-0.003049315456203,51.5046578453751],[-0.002875084868282,51.504819487283676],[-0.002662545253069,51.504966002408224],[-0.002454246940791,51.505151336762395],[-0.002000111616927,51.50545115208595],[-0.001317544725964,51.50586933824057],[-0.000918727975533,51.50605861485559],[-0.00015659485617,51.50631811108705],[0.000143556858012,51.5063948022985],[0.000647310500417,51.50651117209333],[0.000954120526945,51.506574352390416],[0.001364526940924,51.506667139481266],[0.00218188648073,51.50673859391709],[0.002697861090857,51.50674057187729],[0.003156450791967,51.50675071985848],[0.003609775881062,51.50676814808222],[0.003871327895409,51.506752891089064],[0.003954633997591,51.50674517452524],[0.00414622088085,51.50671133419166],[0.00517425028798,51.506428462971655],[0.00596513622085,51.5061622253834],[0.007320799490075,51.5056300982795],[0.007597945584688,51.50551028060646],[0.008196713181863,51.505231134242216],[0.00858050777546,51.50501320368566],[0.00882322025352,51.50486430541188],[0.009139497221783,51.50465112555412],[0.009647746266567,51.50428092408984],[0.009924086403075,51.50407831556316],[0.010239405185909,51.50381120831393],[0.010560300109499,51.50353861050604],[0.011221430453595,51.50290947226388],[0.012419035906088,51.501870075368316],[0.012816590369918,51.501539517746245],[0.013361256198229,51.501083268263564],[0.014125469139755,51.50044155491505],[0.014988333668846,51.49968567469241],[0.015339914561305,51.499390959656054],[0.015604689769202,51.49918862589561],[0.016215977989311,51.49880583564728],[0.017547096702942,51.49808323871758],[0.017549905853202,51.498082291371915],[0.018406195545546,51.49766920249944],[0.019190513829404,51.497356238154644],[0.019802533273526,51.49715510702059],[0.020685479617969,51.49688898047729],[0.021918313798929,51.49652241821273],[0.02313723421755,51.49629543024234],[0.024012503122297,51.49614906976644],[0.024692132172299,51.496075215132116],[0.025687465136493,51.49604094393556],[0.02685573480742,51.49600367523799],[0.027771079423637,51.496016618679285],[0.029047837867203,51.496087221862304],[0.029542977673061,51.49614158431749],[0.030939251465443,51.49627653563491],[0.031434892269946,51.49637412412435],[0.032370970865955,51.49646308888342],[0.033788235850406,51.49668223999656],[0.034878848771135,51.496810758251556],[0.034941168389957,51.496817767945345],[0.035518445287148,51.496841012285664],[0.036418363843842,51.496829882621256],[0.03729533429843,51.49688486287289],[0.037993783171762,51.49694284945602],[0.038513353272836,51.496995850517344],[0.039194716605483,51.49712074414327],[0.039813639329486,51.49717201168573],[0.040146329796771,51.49720308370795],[0.040484315258213,51.49722237542695],[0.041334132864291,51.49724893955321],[0.042150634034481,51.497271582649766],[0.04282038975702,51.497301271668604],[0.043757549484137,51.49734706394036],[0.044189432338516,51.49737279958975],[0.044625644255567,51.49736519451226],[0.045844093520564,51.49732326560501],[0.047113724386915,51.497267754368806],[0.047953928954333,51.49724139626488],[0.048865375352749,51.49719580701773],[0.049514120225951,51.49717278282487],[0.050139662614142,51.497082734311036],[0.050819101675882,51.497005225124695],[0.051433395359351,51.49695312518392],[0.051780879082868,51.49692726723874],[0.052363801690374,51.49688290346362],[0.052806112886457,51.496849898713855],[0.053176419918545,51.49681914197543],[0.053440663253492,51.49680192869772],[0.05394180661067,51.496764383218995],[0.054741850162322,51.49670901217527],[0.056629854312616,51.49656353665588],[0.058206977760811,51.49645756056044],[0.058627846455325,51.49643129318254],[0.059261435618055,51.49642286530778],[0.060024435435736,51.49644191817029],[0.06076786159014,51.49647470545703],[0.061531628730794,51.49651072650755],[0.061876856636242,51.49652982922338],[0.062474682690722,51.49656067068251],[0.062978613744743,51.496585069848145],[0.063906293088791,51.496646960269],[0.066190903899557,51.49676684230105],[0.068157951852875,51.49696689993062],[0.071529736711917,51.497484644150695],[0.073158413837003,51.49784981195609],[0.073187583146957,51.497856488417334],[0.073428111327201,51.4979187632154],[0.073915760587133,51.49806027614394],[0.074302112855453,51.498191981614355],[0.074862317947695,51.49837724811471],[0.075400479497684,51.49861585447048],[0.075781845056065,51.49879708954917],[0.076102261062157,51.49896762532857],[0.076610984582948,51.49922212064569],[0.077095714650121,51.49948962508396],[0.077386366034513,51.4996715627779],[0.077709249684699,51.499896081700925],[0.077988884124689,51.500120377234815],[0.07845367513546,51.50048712184028],[0.078542434766274,51.50057104553673],[0.078703583065073,51.50072371976309],[0.079118954954649,51.501111116271105],[0.079632042372122,51.5015571027888],[0.080270498146315,51.5021626870388],[0.081425631488802,51.50322667934708],[0.081987116033956,51.5038498029588],[0.082748324029602,51.50474366836595],[0.082769652312868,51.504768462165245],[0.083119071795486,51.50519306683175],[0.083621592450386,51.505785764379006],[0.083978883832338,51.50635128312992],[0.084255485880347,51.50676009705265],[0.084591861073028,51.507153373573516],[0.084766776937168,51.50732296617281],[0.084947306566573,51.5074905707633],[0.085420403802782,51.507846352251086],[0.085906751898608,51.5082397449709],[0.08705201584017,51.50905024428283],[0.087717943834572,51.50946470711681],[0.088048021977554,51.50968538393945],[0.088279420491362,51.50979822634769],[0.089857899072303,51.51056232561471],[0.090075538634855,51.51065733937268],[0.090737900710513,51.5109279154476],[0.090945564410263,51.510994426661014],[0.091227129363092,51.511068520038805],[0.091547149403487,51.51113383571767],[0.092426560302744,51.51133040741369],[0.093161052153524,51.511444961257816],[0.093580120298901,51.51149861427372],[0.093998992386487,51.51155056115578],[0.094812667060336,51.511632225031875],[0.095451118072597,51.51166307296747],[0.096212787133112,51.51167822969779],[0.096566937500894,51.51170246566126],[0.098389387393747,51.51184437088076],[0.099706260388418,51.511899015570954],[0.100878721875191,51.51191667559321],[0.102403950123241,51.51173740735158],[0.103479013542616,51.511642521523434],[0.104642912846517,51.511598264808214],[0.105751371070989,51.51153970862656],[0.106119611240674,51.51152410570975],[0.106617379066913,51.511503477884595],[0.106771495129281,51.511503406414526],[0.107179506792058,51.51150506615105],[0.107662856807235,51.51151705780078],[0.107980911640835,51.511539210944065],[0.108188026516925,51.51155976152197],[0.108917049693848,51.511650131456456],[0.109788403080055,51.51176301915888],[0.110229397180438,51.511825208565554],[0.111181245155893,51.51205719665053],[0.112011409569108,51.51227608514185],[0.112425340903558,51.51237471468581],[0.113771182614508,51.512679597469834],[0.11448731283484,51.51283219801004],[0.115141885237252,51.512961540900214],[0.116068891908666,51.51309234780256],[0.116588601776442,51.513142304753636],[0.117692105639845,51.51341195921539],[0.118296767160827,51.51358444002127],[0.119074225464102,51.5127278280506],[0.12021091330637,51.511444691831095],[0.120535198453405,51.511043077438906],[0.120579115934423,51.51009533954693],[0.12059994232672,51.50976852668748],[0.120625328093776,51.509445227461796],[0.120679177381473,51.50895958882656],[0.120694756874864,51.50870659089931],[0.120705895447496,51.508450077165335],[0.120697452717606,51.50783331818331],[0.120723488088658,51.50740122492349],[0.120746118997012,51.5070186396357],[0.120779850128839,51.50662947048651],[0.120847606955659,51.50606985986095],[0.120823300246967,51.504927277299274],[0.1208572716602,51.50379622691402],[0.12092911634921,51.5030791224593],[0.120945293552366,51.50243224980596],[0.120914892620215,51.50196431677248],[0.120919468511073,51.501661172040926],[0.120926761685721,51.501352583985906],[0.120981991652655,51.50077153280273],[0.120999121536429,51.49974606234084],[0.121023341468876,51.49884003410276],[0.121045102571998,51.497353997682666],[0.121082325535087,51.49629310113227],[0.121085307444467,51.496201256467735],[0.121164300549118,51.49520343507411],[0.121196528366773,51.493694732737445],[0.121187845726682,51.493290237286786],[0.121233002945585,51.49258709959445],[0.12124149308686,51.49134233128288],[0.121275060095789,51.4911033915941],[0.121278581776273,51.49108714537087],[0.121292853372772,51.49055538157651],[0.121334671477174,51.48978038165753],[0.121429189646725,51.48899444891098],[0.121520020997838,51.488748269646955],[0.121527023838916,51.48865095793242],[0.121532565103142,51.48855286353585],[0.121496525432731,51.488024706906366],[0.12145482712423,51.48784026144369],[0.121444456608466,51.48773966794932],[0.121448490605781,51.48763980275782],[0.121467306351673,51.487518093416774],[0.121514757380657,51.48733014693155],[0.121945593915706,51.486124484246666],[0.121964854808066,51.48607379003129],[0.12202264479568,51.485860483343544],[0.122073707507347,51.48556368865814],[0.122069774789481,51.48445588604208],[0.122077478859126,51.4835987018555],[0.122065344404967,51.48299459383947],[0.122059566921005,51.482747375372554],[0.122097991195562,51.482426535462906],[0.122134978362093,51.48223077656184],[0.122232585052551,51.481849529387844],[0.12250679234808,51.481241136827144],[0.122638213934017,51.48084660072982],[0.122986394607627,51.479969855660926],[0.123302719974223,51.479092697343475],[0.123458525339003,51.47869421228779],[0.123707256968079,51.47806470108278],[0.12390848629228,51.47746841490533],[0.123973740129317,51.477290932858374],[0.124040302676162,51.47711351696002],[0.124160766963379,51.47682355472207],[0.124053764594467,51.47681290693705],[0.123886026162176,51.47698496354058],[0.123814455564049,51.477054586405494],[0.123676898842529,51.477163253704944],[0.123439734233392,51.47732847593454],[0.122935994863007,51.477583123779475],[0.122610493557961,51.477738346331485],[0.122223132358513,51.47789369880216],[0.121856817219754,51.47806763861053],[0.121765168819634,51.47811155167928],[0.121384330054475,51.478251499775986],[0.121010945041746,51.478398593913305],[0.120730967259578,51.47851154228251],[0.120590263108312,51.47855004855016],[0.12023253867863,51.47859967177373],[0.119872861978811,51.478609771885544],[0.119703500726304,51.478621824341225],[0.119373722600603,51.47868262704954],[0.119146109522951,51.478713712299715],[0.119090324471635,51.478721912846304],[0.118848975728325,51.478797388141345],[0.118454357388318,51.4789195950412],[0.118165245653623,51.478679293712844],[0.117090955712647,51.477778720786134],[0.116818565515922,51.47749406178339],[0.116453427162038,51.47713465900085],[0.116109799707643,51.47680633287666],[0.115664117329795,51.47632521436851],[0.115489744447449,51.47616464763693],[0.115339977809644,51.47604058679863],[0.115079361404578,51.47579436965642],[0.115049280192611,51.47576524436558],[0.115025516862582,51.47574949053448],[0.114632573170786,51.47553532755079],[0.114345863993753,51.475376875209314],[0.114024807602179,51.47519198073704],[0.113801993703151,51.47492080534347],[0.113750168074039,51.47485790865218],[0.113512848588472,51.47455283112288],[0.113224497032914,51.47420192345722],[0.113067414081908,51.47398350362903],[0.113005768117883,51.47389561078529],[0.112842553458122,51.473729444890616],[0.112560118320799,51.47347552418538],[0.112527448043663,51.47345453617802],[0.1124651563284,51.473414303258956],[0.112238090807651,51.4732691555922],[0.111975720154422,51.47307420795043],[0.111772445151112,51.47319474355862],[0.11166592255,51.473289352241984],[0.111234251481118,51.47354444972568],[0.110885181043595,51.47378088689589],[0.110816710623112,51.473827970203075],[0.1106885107535,51.47392117019846],[0.110567667135235,51.474016844802485],[0.110371058146633,51.474186794414756],[0.110033364646304,51.47451301698425],[0.109753781293072,51.47475808933723],[0.109380969728619,51.475013019584566],[0.108973749891998,51.47526856757634],[0.108722175200346,51.475464675874385],[0.10847733559471,51.47574508128687],[0.108297950935271,51.47600821649117],[0.108230416116423,51.47610661594493],[0.108225632828179,51.47612648059039],[0.108165847346641,51.476112272166034],[0.107666556336409,51.47599619435021],[0.107663036382916,51.47591984019661],[0.107548544319133,51.47584188487307],[0.107399856586756,51.475771646446674],[0.107336308070583,51.475735029529076],[0.107272941195964,51.47567143845414],[0.10720006062271,51.47555857176703],[0.107160306540293,51.47547918283353],[0.107058659345872,51.475396501030815],[0.10689783877828,51.475346348565225],[0.106378600928139,51.475139821901955],[0.106162539948579,51.47501424348038],[0.105636153191129,51.47546700967165],[0.105191161995936,51.47524574874011],[0.104891486438735,51.47552443409392],[0.104814252411886,51.475505143067885],[0.104688831424784,51.47537793463492],[0.104484248376888,51.475217894112205],[0.104127166032801,51.475031012276105],[0.103856577531456,51.47484788151961],[0.103711920218987,51.47476956478237],[0.103377056908736,51.47459837459765],[0.103291200806093,51.47457743921192],[0.103272208768938,51.47457238576489],[0.103141113382007,51.47457204048396],[0.103087781530863,51.474599968042774],[0.103076315389171,51.47460107275717],[0.102672981321502,51.47481787074147],[0.102550636531578,51.47488389593331],[0.102549130300562,51.47488212488981],[0.102470436390196,51.47492399242283],[0.102001839359234,51.47447290173115],[0.10182166080166,51.4744689398551],[0.101744657916511,51.474485603801305],[0.101697617465326,51.474495437374465],[0.101440326057411,51.474694329447075],[0.101428615286754,51.4748141100789],[0.100946388645362,51.474975677365954],[0.100199339867589,51.47523449689021],[0.099782308559545,51.47530858474253],[0.099242488186464,51.475408154601155],[0.098713035132738,51.4754490995791],[0.098223985648757,51.4754623482394],[0.098167194749147,51.475355481312775],[0.098097403306843,51.47521369504096],[0.098021145773011,51.47512245988303],[0.097481705094782,51.47466353897124],[0.097334092216797,51.47452053733021],[0.097085503671836,51.47415629302087],[0.096909803798041,51.4740946158269],[0.096803834330037,51.47388613870913],[0.09656054230863,51.47325919262712],[0.096549058282018,51.473228831059274],[0.095664439590479,51.47325004150785],[0.095354491638499,51.47327446112666],[0.095007980802667,51.47328604789069],[0.09464718099271,51.4732682210256],[0.094471730833684,51.47327405269903],[0.094210496830671,51.4732292729177],[0.093997764783387,51.473175445115345],[0.093846279329324,51.47313679547877],[0.093589877205762,51.47307304845334],[0.093171162923917,51.47295196411352],[0.092839862119868,51.4727303349823],[0.092691318777317,51.47263139652621],[0.092481336200442,51.47254155583154],[0.092138763225667,51.47244967574146],[0.091972588619385,51.472375324753905],[0.091936177208008,51.472334619228725],[0.091860952707838,51.4723278702466],[0.091744549175202,51.47226962247095],[0.091541979516697,51.472186030940435],[0.091398446264025,51.472100486890554],[0.091264208631591,51.47206242528533],[0.09129826302941,51.47202046257264],[0.091279168042355,51.47197935804665],[0.091220647621982,51.47195882528026],[0.091196304902163,51.47189902468288],[0.0910966975841,51.471831576301184],[0.091108025846899,51.47179631218738],[0.09118427452491,51.471732020239806],[0.090875809880364,51.47153425202451],[0.090533146966589,51.471315516184454],[0.090103288661526,51.47104619036349],[0.08983144216211,51.47086493800989],[0.089543747734899,51.47071354549037],[0.089047901142182,51.470418421166904],[0.088896921303008,51.470390544515176],[0.088591299088695,51.47031957242317],[0.088102288184134,51.47020511667559],[0.087597011005596,51.4700827674113],[0.087268461940442,51.47001399820173],[0.087002126265404,51.469953110841224],[0.086609220058662,51.469798189961836],[0.08634452962558,51.46967703704439],[0.086018724708081,51.469543395695645],[0.085763188322753,51.46943286691606],[0.085445201640889,51.46909051070143],[0.085176879473477,51.46879581772996],[0.085106716666357,51.468709860072096],[0.084796788742268,51.4687315545022],[0.084532050700003,51.46832522713078],[0.08433382961139,51.46802119452418],[0.083978093736159,51.46754555056444],[0.083542918204816,51.46693637352032],[0.083218300995587,51.46647896387036],[0.082295589137467,51.46664108917111],[0.08227395230474,51.4666091085293],[0.08222290750971,51.466530900835984],[0.082190064218618,51.46641182373718],[0.082204397729965,51.46606175787803],[0.082200759388651,51.4656976267792],[0.0821454654578,51.46511406166759],[0.082175770771092,51.46473674125802],[0.082188998336818,51.46464660362892],[0.082469321439462,51.46413169621753],[0.082585115085369,51.46389310518526],[0.082629956039403,51.4636135202833],[0.08260249579277,51.46326329765764],[0.082530947772838,51.46298757845426],[0.082411820030912,51.46264707542434],[0.082375367998554,51.46254253676605],[0.082307749126854,51.46219662349436],[0.082279375976446,51.46192013719159],[0.082266523901346,51.46160651505845],[0.082263743293735,51.46154543059332],[0.082227139037099,51.46118458189213],[0.082227397347763,51.46109638272072],[0.082230943925532,51.460983941304036],[0.082244579409731,51.46090278663867],[0.082274221862938,51.46079518594401],[0.082311556692493,51.46070012488464],[0.082409876073749,51.46051848298137],[0.082479665676603,51.46034373090777],[0.082655967695645,51.460073497739586],[0.082878332486667,51.459834810832135],[0.08082513573626,51.45957540452661],[0.079388829067001,51.45939231685399],[0.078637160904049,51.45929317958422],[0.078667642274085,51.4592665672955],[0.078826756114327,51.45912439651647],[0.079501464786748,51.45864026034724],[0.079611566052971,51.45856099079746],[0.079752668134893,51.45862321746438],[0.080421245781609,51.45822648019702],[0.080780163968884,51.45804650754136],[0.080867465940391,51.45800360258244],[0.081419858185282,51.457774432849206],[0.082205918339152,51.457523938676026],[0.082995961117601,51.4572985411765],[0.083902287268816,51.45706486784532],[0.084986179820708,51.45681085782008],[0.085683987380118,51.456645519365296],[0.085679687517269,51.45655119788899],[0.085722372367806,51.45644615111043],[0.085823249207503,51.45619613441148],[0.086004384007848,51.455780167187065],[0.086021518396095,51.455619745283904],[0.086030962937537,51.45554315978239],[0.086059036990905,51.455401422787524],[0.08605825363881,51.45525669312045],[0.086085374975162,51.45506282940416],[0.086187766547015,51.4548461393153],[0.086244778371943,51.454706584326615],[0.086266881016076,51.45456144732174],[0.086298582882409,51.45434053114019],[0.086389048686338,51.45376605980534],[0.086435535854906,51.45339833867406],[0.086508364294184,51.45294204378201],[0.086576103581824,51.45247046599841],[0.086607781242238,51.45218661803872],[0.086644453837187,51.451887397643056],[0.086653978671239,51.451812608665925],[0.086716916248418,51.45155067989118],[0.086809685511208,51.45096447953502],[0.086830601073996,51.450699702649395],[0.086796250838112,51.45045128306085],[0.087037431944845,51.449963131423814],[0.087409077974988,51.44949701962611],[0.087832953526732,51.448662093304826],[0.087888044792333,51.44841828406096],[0.087908468792467,51.448171496186724],[0.088039267772081,51.44750640138899],[0.08804056703721,51.447092734565025],[0.088005624037504,51.44680018335879],[0.087909753476066,51.44658963015888],[0.087766770301562,51.44642315939806],[0.08753209261765,51.44623126076733],[0.087352990002041,51.44608970659828],[0.08735508589531,51.44594573456566],[0.087354929500712,51.445848642105624],[0.087281216238658,51.44574656634493],[0.087067656653701,51.44560913156328],[0.086897443568075,51.44553754276524],[0.086811587060916,51.44545276448979],[0.086694618703382,51.445411693478405],[0.0865556329282,51.445392591020926],[0.0863562494402,51.445344805600314],[0.086294346904079,51.44531174430872],[0.086388630435951,51.444982729242135],[0.086504578261506,51.44468389544655],[0.086671529752347,51.444400336058095],[0.086804597884275,51.44413095502655],[0.086924231410692,51.44391566494017],[0.087219153540304,51.443565994951484],[0.087380190169735,51.44324657856405],[0.086913302465791,51.44326478178606],[0.086450544656047,51.44324604938623],[0.086320551820029,51.44323667593535],[0.085748245966005,51.44299324514884],[0.08553912409705,51.442950216742794],[0.085283257941875,51.44286297819833],[0.085304742997119,51.4428293318346],[0.084992557047785,51.44273509328564],[0.084991093501652,51.44273422029007],[0.084712020701949,51.44261152202061],[0.084348379182297,51.44287241482201],[0.083666570064857,51.443259612879636],[0.083216127385252,51.44354272281113],[0.083032425046185,51.443427315751094],[0.082810275470381,51.44328831781541],[0.082943812550302,51.4431878606294],[0.08297298091673,51.44316396749396],[0.083097866968933,51.44306375376953],[0.082931994887908,51.44292816110798],[0.082825874068702,51.44284104298492],[0.082913668829535,51.44277834878875],[0.083224243758994,51.44264696497026],[0.084415565929657,51.44201066836011],[0.084169826014192,51.44179648407842],[0.08323866660544,51.44109723030741],[0.082941655118589,51.440864176113344],[0.082790013274045,51.440725633276905],[0.082573924007861,51.44056045535878],[0.081833169246408,51.43999805595326],[0.081785498704164,51.43996204243836],[0.081642289136187,51.44004010452932],[0.081326698335548,51.44018874483377],[0.080851673447155,51.44040575420855],[0.08041580844836,51.44003041495574],[0.080403819631049,51.44001983939744],[0.080486861246233,51.43997790903767],[0.080292807867127,51.43982483233201],[0.080046333622875,51.43962512694528],[0.080032840831467,51.43961277998058],[0.080132989396263,51.439568748211535],[0.080196326903155,51.43953705708163],[0.080104273328199,51.43944330375055],[0.079959312565274,51.43929483930624],[0.079943907612753,51.439271737905166],[0.079937727752861,51.43926105921345],[0.080029385222501,51.43922077432949],[0.079811598810128,51.439020469433665],[0.07977863798929,51.43898958826855],[0.079763808447533,51.43898176014367],[0.079703260212122,51.438946873332036],[0.079606426105717,51.43890714624199],[0.079488507230605,51.438875974339126],[0.079581974008941,51.438747552757974],[0.079459617511732,51.43865262843416],[0.079253214082316,51.43847819242871],[0.079146671189038,51.43841535232406],[0.079063279666358,51.43832153443038],[0.07881527519437,51.43815053269643],[0.078790080758221,51.438133897987825],[0.078850331367178,51.43809956523263],[0.079002595953817,51.437998870153635],[0.079036153017144,51.43797759721435],[0.078904189817731,51.43779644594016],[0.078832773428213,51.43765018182834],[0.078685611302161,51.43741904410909],[0.078501270100807,51.43719207176632],[0.078435115878392,51.43713031282543],[0.078418616230019,51.43711442287945],[0.078314461405264,51.43700739730686],[0.078139192585886,51.4367920408204],[0.077966770770144,51.43660800974978],[0.077819992228563,51.43644788753456],[0.07730451884279,51.436630537693794],[0.077077001863744,51.43668851176749],[0.076929689730691,51.43674146801538],[0.07654458696999,51.43687963994635],[0.076511918795266,51.436857742990085],[0.076000148216554,51.43651789549646],[0.07590083736583,51.43645213738625],[0.075001946270616,51.43588898998327],[0.074960382196364,51.43586185591738],[0.075450887120156,51.43551046077809],[0.075648446914834,51.435362218345986],[0.076006186196583,51.4351283377444],[0.076406868136991,51.4348892899843],[0.076418202862761,51.43488549305135],[0.07650318695933,51.434855128522216],[0.075889621624894,51.43445954615392],[0.07629019960725,51.434092748382525],[0.076388303151852,51.43400380444099],[0.075912408169115,51.433755921147615],[0.075695979203603,51.43364737566045],[0.075654738492908,51.43362733845405],[0.076080097890023,51.43329965976499],[0.075892739415287,51.43303686550516],[0.075629786079157,51.43285443453709],[0.075424038169384,51.43269616283087],[0.075047248315987,51.43241244780423],[0.074904034527943,51.43233308169501],[0.07483277517834,51.43231546361629],[0.074784751919611,51.43227136226943],[0.074687164845356,51.4321831867888],[0.074652749487051,51.43215143092181],[0.075307608835171,51.43199859914565],[0.075343196316204,51.43199077673032],[0.075182201088739,51.431613247738326],[0.074835963775759,51.430830748393944],[0.074304780186311,51.4314903298568],[0.074022280444269,51.43157264609728],[0.073327853495258,51.43177372938776],[0.073035130516759,51.431378749164246],[0.073471469813653,51.43125955053459],[0.072237734609278,51.42993875955627],[0.071942880325565,51.42965349600966],[0.071636577501326,51.42943496234353],[0.071230830532521,51.429210094146185],[0.070289036022337,51.428679944661035],[0.070125207797034,51.428587541397505],[0.06992888365468,51.4284768322247],[0.068541598797272,51.427607420783445],[0.067712544122298,51.42715077942624],[0.066935056465257,51.42672208167385],[0.066404142098612,51.42633757904986],[0.066579485812047,51.42601524162795],[0.064714514463831,51.42561729827152],[0.064779029542404,51.4255145712474],[0.0641942144375,51.42537024023787],[0.064196977685967,51.425368393507426],[0.064437241420705,51.42504941097603],[0.064003996212981,51.42478904126928],[0.063529130814588,51.42446557171336],[0.063480151463355,51.42439981601568],[0.063388288508653,51.42430883338531],[0.063342151954189,51.42427458352817],[0.063264010141717,51.42423280586583],[0.063202314763858,51.4242033250281],[0.062940583612895,51.424108949390245],[0.061708221528581,51.42373497322139],[0.061337516302729,51.42406253780111],[0.060899965807382,51.425079214099],[0.060644436794291,51.42505943362199],[0.059836405719161,51.424874953183576],[0.059254090382431,51.424722372538305],[0.059152467712842,51.42470168241973],[0.059005761304726,51.4246700969329],[0.058831789496619,51.42467045628699],[0.058731095769717,51.424670427158645],[0.058596589369277,51.42459097829168],[0.058199708995441,51.4248830313281],[0.057780808431878,51.42516288321758],[0.056414973337631,51.42614009799751],[0.056391326259358,51.42615759447776],[0.055985180792861,51.4265001479439],[0.054827067938033,51.427522246759246],[0.054711326869053,51.42766812056165],[0.054418113709461,51.42793227093918],[0.053891756462774,51.42844872835496],[0.053458922814244,51.42899581977285],[0.052926972127088,51.429647314715346],[0.052453992499698,51.43016723553104],[0.05215609475906,51.43048630268944],[0.051334926224435,51.43126242450825],[0.051049057917467,51.43152994368909],[0.050148179679279,51.432134748620065],[0.049535898050837,51.4325331179265],[0.049252120759954,51.43271788550179],[0.048368661696134,51.43332596787267],[0.047784932747278,51.433753406708256],[0.047104230437806,51.43439209943489],[0.046623662947395,51.43484299300491],[0.046414817958593,51.43503273815917],[0.046198203445258,51.43523978997117],[0.045802183314067,51.43565045587935],[0.045147022199639,51.43621946586783],[0.045148179911677,51.436404734929496],[0.045182889526855,51.43660281401074],[0.044884609911241,51.43678521650275],[0.044319031393856,51.437169167446775],[0.043586599168551,51.43765311970011],[0.043311680498355,51.43774520819562],[0.043225305865573,51.43787527463019],[0.042943487298995,51.4382993128414],[0.042912457857825,51.438345703986826],[0.042712260640904,51.4386315771316],[0.042498118165988,51.43899051397394],[0.042467248132058,51.43904049831416],[0.0423133617384,51.43926892509609],[0.042184710359552,51.43948063962001],[0.041953611705729,51.43965377259691],[0.041401277354746,51.43995027274082],[0.040946473868046,51.44020452594028],[0.040116998313945,51.4407091149262],[0.040077028444374,51.440746670641765],[0.040098563347525,51.44081192462567],[0.039999417448254,51.44087936898665],[0.039814220597072,51.44098597998551],[0.039748469268919,51.44099611449327],[0.03961686471769,51.44104605298556],[0.039323742709196,51.44115094509926],[0.039049636147305,51.44126458581576],[0.03881541420571,51.441336087080245],[0.038490058874247,51.44139928360727],[0.038298188508846,51.44145206676073],[0.037895531737666,51.44165244846852],[0.037596369640261,51.441784411947346],[0.036992447799669,51.44192266036168],[0.036953155224024,51.44197818369566],[0.036820945172674,51.442014644161446],[0.036776385098492,51.4420477833638],[0.03670169728795,51.44205177826558],[0.036567536906785,51.44214041573396],[0.036173584993292,51.44231007334701],[0.036047382324456,51.44235092368872],[0.035979822972328,51.44238715916576],[0.035935246231258,51.442387933463685],[0.03589647869153,51.442388606841995],[0.035731349467817,51.442429233942946],[0.035543564299496,51.44244598061661],[0.035488965609317,51.44248019267722],[0.035479128070145,51.442485757659284],[0.035257491678031,51.44261376157221],[0.035240502059217,51.44262124877003],[0.035132006234798,51.442670780891966],[0.034837401965243,51.442777485406125],[0.034615482850113,51.442899199819756],[0.034606164190793,51.44291644302962],[0.034570776566977,51.44296380653446],[0.034309365056752,51.44306993352903],[0.034296563319957,51.443075549855635],[0.034129742456764,51.443142275717676],[0.034031725929723,51.44320340215071],[0.03398964879672,51.44322840596602],[0.033971554192412,51.44324040726973],[0.033939648520305,51.44329939746172],[0.033835222133086,51.44344325522715],[0.033638915107891,51.44349529850635],[0.033597276503147,51.44353018382783],[0.033584832566984,51.44354118800881],[0.033470563297633,51.44359171775008],[0.033377180289105,51.44359693387075],[0.033180482827255,51.44367226785595],[0.033087603470986,51.44365410039625],[0.033068830162747,51.4436508299295],[0.032971272286371,51.44369028103266],[0.032703725446969,51.44379201567812],[0.032526493641612,51.44381945263568],[0.03228529415772,51.44389465775504],[0.032094590479545,51.443944713316775],[0.031658471104519,51.444007113836705],[0.031334071135973,51.444153972784214],[0.031285863270128,51.44417188967103],[0.031001132887247,51.44420739044913],[0.030759240173618,51.44423765324672],[0.030585735560113,51.44431707611231],[0.030500765508501,51.44431405297456],[0.030324897406293,51.444308109197095],[0.029978319329068,51.44327547056051],[0.029572866473628,51.442116099087],[0.029573960661684,51.44197754064786],[0.02957426810651,51.44195236267119],[0.029576408105819,51.44174105513066],[0.029359006161337,51.441705262346254],[0.028895112017179,51.44162779605727],[0.028880607758316,51.44162445102894],[0.028648783145291,51.44158980560664],[0.028563261802894,51.44157690138063],[0.028216041851234,51.44153256488965],[0.027767544718521,51.441510657063624],[0.027281126782584,51.441543344794496],[0.026852484308775,51.44157862753339],[0.026662291165442,51.44160529086478],[0.026217920394013,51.44164443931886],[0.025416239093745,51.44173830821369],[0.02500439808864,51.441796758330966],[0.024673010869889,51.44185282836072],[0.0244175754391,51.441901292510586],[0.024173798169643,51.4419531508611],[0.023638548854675,51.442083761135684],[0.023259197151196,51.44219288843663],[0.022776194856712,51.4423675439766],[0.022074381958097,51.442573932088564],[0.021553980317977,51.44271596388704],[0.021482928156266,51.44273516974293],[0.021098250560356,51.443409147517286],[0.020596873669479,51.444210908844475],[0.021483399721801,51.44444114596004],[0.021496481625593,51.44444451643541],[0.021421156146513,51.44465987262139],[0.021263092472191,51.4449926293524],[0.021262223478066,51.44523358219951],[0.021234011634272,51.44570173983578],[0.021210079020705,51.4466913461213],[0.021531886714707,51.4467774968142],[0.022751161726506,51.447141423751894],[0.022942386651355,51.44720465132594],[0.022820188049516,51.44743331367256],[0.022678702908747,51.44765250934705],[0.022459504836228,51.4480330715679],[0.022401782509352,51.44812585759775],[0.02229378895819,51.448257179915444],[0.022196795896409,51.44843874745958],[0.022179304205098,51.448531648436216],[0.022140595580752,51.44866537139418],[0.022131439876784,51.448718661510476],[0.021927617305417,51.44895862012617],[0.021567400330175,51.449013380205585],[0.020467215656524,51.44913043223955],[0.019165567258724,51.44928052221057],[0.01798545141026,51.44941241300166],[0.01729397168131,51.44952770254791],[0.01506379019915,51.45003184438904],[0.014875989782602,51.45060433232856],[0.015009193025346,51.45062182109392],[0.015122812557005,51.45022690610769],[0.019838381159419,51.45073208736693],[0.019871623012368,51.45073511064969],[0.019744919736381,51.45112306373161],[0.019710660300682,51.45119647471781],[0.019639655627387,51.451348823511594],[0.019535988819696,51.451704913676465],[0.019289141096275,51.45168848874545],[0.018331665459318,51.451582621937675],[0.01833044089145,51.45158983518759],[0.018041581685831,51.45300222506085],[0.018010121083503,51.45303962650371],[0.017928070423132,51.4531381331985],[0.01785899157662,51.45326707313105],[0.017703680068418,51.45359618082243],[0.017604052763542,51.45381824548561],[0.017507589302602,51.454112087312076],[0.017502263602405,51.45418778656928],[0.017495117675926,51.454286801774984],[0.017478482797116,51.45436440380504],[0.01746263741407,51.45443030498211],[0.017438699263682,51.454573751067144],[0.01743818720637,51.45459443734251],[0.017428670284734,51.454704281583176],[0.017452352662375,51.45475152207138],[0.017472836676495,51.454793513381425],[0.017513930070131,51.45503913764323],[0.017479697859102,51.45504601993996],[0.016024388238698,51.455338156207894],[0.015316216063916,51.45546999271666],[0.014813315304247,51.45555505412933],[0.014395244783434,51.45563955469652],[0.014197238007975,51.4556870090396],[0.014030578353958,51.45572673232154],[0.013528625117073,51.45586580297397],[0.013160357811556,51.455968323046015],[0.012979069595218,51.456037064659846],[0.012606770828667,51.45617750091326],[0.012288583963709,51.4563070279838],[0.011915292169567,51.45646006532178],[0.011700397845255,51.45655005913547],[0.011519026207716,51.45661430479164],[0.011516219451789,51.45661525197275],[0.011484631154035,51.45668501847276],[0.011483839942849,51.456699416354795],[0.011485343383368,51.45676600787234],[0.011481583373097,51.45687755075683],[0.011414929643753,51.45696500027679],[0.01137539591392,51.45701602367167],[0.011256798273874,51.45716648655459],[0.011233710330942,51.45719744931841],[0.010998879312637,51.45751982064325],[0.010796144607471,51.45785422718215],[0.010645240096127,51.4580879532863],[0.010442932614131,51.4584646057065],[0.010311080949217,51.45867283205674],[0.010113908646676,51.45903411246414],[0.009947454906981,51.45934092470595],[0.009903517412114,51.4595538464032],[0.009867168620772,51.45983954836715],[0.009823813085292,51.46029537481456],[0.009747158930299,51.46087673562064],[0.009764849947927,51.461149733896605],[0.00980472617067,51.461400865282336],[0.009823248231249,51.46172518322434],[0.009843983515727,51.462064746514095],[0.009825033176435,51.462289915842774],[0.009795685338245,51.462505374213336],[0.009719640605212,51.46277377615469],[0.009617854876888,51.46301286179386],[0.009532715593042,51.46327153028375],[0.009380392704216,51.46363833337968],[0.009310161282063,51.46384190605576],[0.009279902598476,51.46403670242648],[0.009269183614618,51.46408723113904],[0.009120928885977,51.464449469009196],[0.009048957934393,51.46458105998021],[0.009017759455456,51.46465720201884],[0.008988098682036,51.46473592484799],[0.008987574050577,51.46485370515681],[0.009067897385176,51.46510953762282],[0.009138855147289,51.465316983582284],[0.00917418158101,51.46556450702698],[0.00911631776967,51.46582001056603],[0.009097096973379,51.46587428101542],[0.009943232833799,51.46599561899992],[0.010484838946738,51.46606724374421],[0.010753942736681,51.46609679120186],[0.010913483116001,51.46612372232776],[0.011302789645434,51.46620074253107],[0.011459523349905,51.466228620086746],[0.011596645193322,51.466269420197754],[0.011808496298607,51.466341302428525],[0.012089584637939,51.46647861321662],[0.012483082098115,51.46665346064424],[0.012746417468892,51.46671366918237],[0.012837557023531,51.46672379166018],[0.012974365242296,51.46675740341391],[0.013153643627998,51.46680655794972],[0.013245455692457,51.46683195186864],[0.013141505111725,51.466956902383615],[0.013012683145306,51.46707239066333],[0.012764847502002,51.46726463052194],[0.012691182949229,51.467357595023486],[0.012666907928237,51.46749115630574],[0.012692845571866,51.46762466466483],[0.01277999669649,51.46773833261548],[0.012976830831468,51.46789228120772],[0.013053144968323,51.467991660844746],[0.013068965471681,51.46812183666919],[0.013051725630039,51.46828575392036],[0.013013493121706,51.468431242149215],[0.012889850029216,51.46879665812592],[0.012601791583398,51.46980697484659],[0.01299247281914,51.46985241049302],[0.013481181155908,51.46989706036073],[0.013486084248971,51.46987899580262],[0.013496878846749,51.46983026346419],[0.013587550126617,51.469829605225094],[0.013756120418099,51.46982940693854],[0.01402520727282,51.46979331902081],[0.014358549986083,51.46974443924304],[0.014545189421991,51.46970167552595],[0.014987269140302,51.46957181187055],[0.015262949104515,51.46945640430503],[0.015528193842268,51.46936553886534],[0.015831475788067,51.46925424040289],[0.015849895967217,51.46921427698672],[0.015960215479679,51.469169227179385],[0.016030362521885,51.46916082880199],[0.016041829641624,51.469159732593845],[0.016111974262791,51.469116272507506],[0.016330631701433,51.46898125546524],[0.016533018688622,51.469131506588575],[0.0166120032453,51.469323526776954],[0.016623203387566,51.469445600572705],[0.016694304107904,51.46949112647657],[0.016605665553989,51.46963478592201],[0.016463922303488,51.46985029120622],[0.016347399169571,51.46991891253788],[0.016291250893649,51.469951343827674],[0.016205565281366,51.47000046538294],[0.016199321214284,51.470052715801785],[0.016196120153901,51.470079741387835],[0.016143811038247,51.47016694666994],[0.015893106395502,51.47062004742882],[0.015515868321236,51.47127310682814],[0.015357633433363,51.47156989565237],[0.015212804377837,51.471912303701004],[0.015079046674218,51.472274299634215],[0.014995187889919,51.47252935374019],[0.014953247574909,51.47281695099291],[0.01498489976142,51.47307990898218],[0.016029192260182,51.473313681353474],[0.016194815875113,51.47334868188978],[0.016552750335125,51.47343152870657],[0.017780560957621,51.473715260853794],[0.018123598528141,51.47385319935697],[0.018041183530749,51.473844728768796],[0.017040183774564,51.473742384975296],[0.015251068013728,51.47353212484737],[0.014356854350047,51.47343331673154],[0.013563719259088,51.47334076714103],[0.012088984303272,51.47317279696728],[0.010148334539161,51.47295517051249],[0.009218866451255,51.47287221104021],[0.007489686542683,51.47268148301965],[0.005411661453537,51.47244635215845],[0.004544853106003,51.47234879866614],[0.003759069830331,51.472260552311006],[0.002842879179458,51.47215214303834],[0.001636360685674,51.47202351125108],[0.000877991902601,51.471937474640264],[0.00036574737999,51.47187878948071],[-5.646354155e-06,51.47184826595927],[-0.000359091295141,51.47183451643039],[-0.0009834922995,51.47181190084216],[-0.001192169717626,51.47181545870213],[-0.001324369095317,51.47182220752951],[-0.001496471416277,51.47183682852659],[-0.002349643848495,51.47195295739518],[-0.003598044709144,51.472118154293106],[-0.005630366466297,51.472400871336646],[-0.0066892077734,51.47255471931379],[-0.006954566583917,51.47257900887252],[-0.007362814087223,51.47262910081617],[-0.008143456794455,51.472756540771776],[-0.008614401894831,51.47275465164676],[-0.008895839264613,51.47273965325573],[-0.009071774190659,51.472734549858075],[-0.010078021706121,51.47260779061713],[-0.010322264828839,51.472552600886644],[-0.011678700710097,51.47238852775952],[-0.01251884937143,51.47234074091721],[-0.012873930956737,51.47235215377195],[-0.013143955047698,51.47237021527367],[-0.013363167018542,51.472393708264676],[-0.01367135997371,51.47249242753743],[-0.014069446970408,51.4726754678788],[-0.014257516716491,51.47252213506762],[-0.014542854614645,51.472151988842825],[-0.014540904477934,51.47213127849992],[-0.014528560984183,51.4719179132841],[-0.01453441312214,51.471917113374914],[-0.014754540147898,51.47188667843968],[-0.015184437275529,51.47176899413034],[-0.014860702229002,51.47139932258317],[-0.014422879310445,51.470671528618276],[-0.014097032723781,51.470118420167665],[-0.014046697385936,51.47005005157597],[-0.013840955774125,51.46978225612306],[-0.013716800505621,51.46965599887795],[-0.013473930980362,51.469379392681134],[-0.01312895030569,51.468936535864266]]]]},"properties":{"url":"http://elections.democracyclub.org.uk/api/organisations/local-authority/GRE/1965-04-01/geo/","official_identifier":"GRE","organisation_type":"local-authority","organisation_subtype":"LBO","official_name":"Royal Borough of Greenwich","common_name":"Greenwich","slug":"greenwich","territory_code":"ENG","election_name":"Greenwich local election","start_date":"1965-04-01","end_date":null,"created":"1965-04-01T00:00:00Z","modified":"2021-10-11T14:59:26.370579Z"}}