{"type":"Feature","geometry":{"type":"MultiPolygon","coordinates":[[[[-0.01312895030569,51.468936535864266],[-0.013473930980362,51.469379392681134],[-0.013716800505621,51.46965599887795],[-0.013840955774125,51.46978225612306],[-0.014046697385936,51.47005005157597],[-0.014097032723781,51.470118420167665],[-0.014422879310445,51.470671528618276],[-0.014860702229002,51.47139932258317],[-0.015184437275529,51.47176899413034],[-0.014754540147898,51.47188667843968],[-0.01453441312214,51.471917113374914],[-0.014528560984183,51.4719179132841],[-0.014540904477934,51.47213127849992],[-0.014542854614645,51.472151988842825],[-0.014257516716491,51.47252213506762],[-0.014069446970408,51.4726754678788],[-0.01367135997371,51.47249242753743],[-0.013363167018542,51.472393708264676],[-0.013143955047698,51.47237021527367],[-0.012873930956737,51.47235215377195],[-0.01251884937143,51.47234074091721],[-0.011678700710097,51.47238852775952],[-0.010322264828839,51.472552600886644],[-0.010078021706121,51.47260779061713],[-0.009071774190659,51.472734549858075],[-0.008895839264613,51.47273965325573],[-0.008614401894831,51.47275465164676],[-0.008143456794455,51.472756540771776],[-0.007362814087223,51.47262910081617],[-0.006954566583917,51.47257900887252],[-0.0066892077734,51.47255471931379],[-0.005630366466297,51.472400871336646],[-0.003598044709144,51.472118154293106],[-0.002349643848495,51.47195295739518],[-0.001496471416277,51.47183682852659],[-0.001324369095317,51.47182220752951],[-0.001192169717626,51.47181545870213],[-0.0009834922995,51.47181190084216],[-0.000359091295141,51.47183451643039],[-5.646354155e-06,51.47184826595927],[0.00036574737999,51.47187878948071],[0.000877991902601,51.471937474640264],[0.001636360685674,51.47202351125108],[0.002842879179458,51.47215214303834],[0.003759069830331,51.472260552311006],[0.004544853106003,51.47234879866614],[0.005411661453537,51.47244635215845],[0.007489686542683,51.47268148301965],[0.009218866451255,51.47287221104021],[0.010148334539161,51.47295517051249],[0.012088984303272,51.47317279696728],[0.013563719259088,51.47334076714103],[0.014356854350047,51.47343331673154],[0.015251068013728,51.47353212484737],[0.017040183774564,51.473742384975296],[0.018041183530749,51.473844728768796],[0.018123598528141,51.47385319935697],[0.017780560957621,51.473715260853794],[0.016552750335125,51.47343152870657],[0.016194815875113,51.47334868188978],[0.016029192260182,51.473313681353474],[0.01498489976142,51.47307990898218],[0.014953247574909,51.47281695099291],[0.014995187889919,51.47252935374019],[0.015079046674218,51.472274299634215],[0.015212804377837,51.471912303701004],[0.015357633433363,51.47156989565237],[0.015515868321236,51.47127310682814],[0.015893106395502,51.47062004742882],[0.016143811038247,51.47016694666994],[0.016196120153901,51.470079741387835],[0.016199321214284,51.470052715801785],[0.016205565281366,51.47000046538294],[0.016291250893649,51.469951343827674],[0.016347399169571,51.46991891253788],[0.016463922303488,51.46985029120622],[0.016605665553989,51.46963478592201],[0.016694304107904,51.46949112647657],[0.016623203387566,51.469445600572705],[0.0166120032453,51.469323526776954],[0.016533018688622,51.469131506588575],[0.016330631701433,51.46898125546524],[0.016111974262791,51.469116272507506],[0.016041829641624,51.469159732593845],[0.016030362521885,51.46916082880199],[0.015960215479679,51.469169227179385],[0.015849895967217,51.46921427698672],[0.015831475788067,51.46925424040289],[0.015528193842268,51.46936553886534],[0.015262949104515,51.46945640430503],[0.014987269140302,51.46957181187055],[0.014545189421991,51.46970167552595],[0.014358549986083,51.46974443924304],[0.01402520727282,51.46979331902081],[0.013756120418099,51.46982940693854],[0.013587550126617,51.469829605225094],[0.013496878846749,51.46983026346419],[0.013486084248971,51.46987899580262],[0.013481181155908,51.46989706036073],[0.01299247281914,51.46985241049302],[0.012601791583398,51.46980697484659],[0.012889850029216,51.46879665812592],[0.013013493121706,51.468431242149215],[0.013051725630039,51.46828575392036],[0.013068965471681,51.46812183666919],[0.013053144968323,51.467991660844746],[0.012976830831468,51.46789228120772],[0.01277999669649,51.46773833261548],[0.012692845571866,51.46762466466483],[0.012666907928237,51.46749115630574],[0.012691182949229,51.467357595023486],[0.012764847502002,51.46726463052194],[0.013012683145306,51.46707239066333],[0.013141505111725,51.466956902383615],[0.013245455692457,51.46683195186864],[0.013153643627998,51.46680655794972],[0.012974365242296,51.46675740341391],[0.012837557023531,51.46672379166018],[0.012746417468892,51.46671366918237],[0.012483082098115,51.46665346064424],[0.012089584637939,51.46647861321662],[0.011808496298607,51.466341302428525],[0.011596645193322,51.466269420197754],[0.011459523349905,51.466228620086746],[0.011302789645434,51.46620074253107],[0.010913483116001,51.46612372232776],[0.010753942736681,51.46609679120186],[0.010484838946738,51.46606724374421],[0.009943232833799,51.46599561899992],[0.009097096973379,51.46587428101542],[0.00911631776967,51.46582001056603],[0.00917418158101,51.46556450702698],[0.009138855147289,51.465316983582284],[0.009067897385176,51.46510953762282],[0.008987574050577,51.46485370515681],[0.008988098682036,51.46473592484799],[0.009017759455456,51.46465720201884],[0.009048957934393,51.46458105998021],[0.009120928885977,51.464449469009196],[0.009269183614618,51.46408723113904],[0.009279902598476,51.46403670242648],[0.009310161282063,51.46384190605576],[0.009380392704216,51.46363833337968],[0.009532715593042,51.46327153028375],[0.009617854876888,51.46301286179386],[0.009719640605212,51.46277377615469],[0.009795685338245,51.462505374213336],[0.009825033176435,51.462289915842774],[0.009843983515727,51.462064746514095],[0.009823248231249,51.46172518322434],[0.00980472617067,51.461400865282336],[0.009764849947927,51.461149733896605],[0.009747158930299,51.46087673562064],[0.009823813085292,51.46029537481456],[0.009867168620772,51.45983954836715],[0.009903517412114,51.4595538464032],[0.009947454906981,51.45934092470595],[0.010113908646676,51.45903411246414],[0.010311080949217,51.45867283205674],[0.010442932614131,51.4584646057065],[0.010645240096127,51.4580879532863],[0.010796144607471,51.45785422718215],[0.010998879312637,51.45751982064325],[0.011233710330942,51.45719744931841],[0.011256798273874,51.45716648655459],[0.01137539591392,51.45701602367167],[0.011414929643753,51.45696500027679],[0.011481583373097,51.45687755075683],[0.011485343383368,51.45676600787234],[0.011483839942849,51.456699416354795],[0.011484631154035,51.45668501847276],[0.011516219451789,51.45661525197275],[0.011519026207716,51.45661430479164],[0.011700397845255,51.45655005913547],[0.011915292169567,51.45646006532178],[0.012288583963709,51.4563070279838],[0.012606770828667,51.45617750091326],[0.012979069595218,51.456037064659846],[0.013160357811556,51.455968323046015],[0.013528625117073,51.45586580297397],[0.014030578353958,51.45572673232154],[0.014197238007975,51.4556870090396],[0.014395244783434,51.45563955469652],[0.014813315304247,51.45555505412933],[0.015316216063916,51.45546999271666],[0.016024388238698,51.455338156207894],[0.017479697859102,51.45504601993996],[0.017513930070131,51.45503913764323],[0.017472836676495,51.454793513381425],[0.017452352662375,51.45475152207138],[0.017428670284734,51.454704281583176],[0.01743818720637,51.45459443734251],[0.017438699263682,51.454573751067144],[0.01746263741407,51.45443030498211],[0.017478482797116,51.45436440380504],[0.017495117675926,51.454286801774984],[0.017502263602405,51.45418778656928],[0.017507589302602,51.454112087312076],[0.017604052763542,51.45381824548561],[0.017703680068418,51.45359618082243],[0.01785899157662,51.45326707313105],[0.017928070423132,51.4531381331985],[0.018010121083503,51.45303962650371],[0.018041581685831,51.45300222506085],[0.01833044089145,51.45158983518759],[0.018331665459318,51.451582621937675],[0.019289141096275,51.45168848874545],[0.019535988819696,51.451704913676465],[0.019639655627387,51.451348823511594],[0.019710660300682,51.45119647471781],[0.019744919736381,51.45112306373161],[0.019871623012368,51.45073511064969],[0.019838381159419,51.45073208736693],[0.015122812557005,51.45022690610769],[0.015009193025346,51.45062182109392],[0.014875989782602,51.45060433232856],[0.01506379019915,51.45003184438904],[0.01729397168131,51.44952770254791],[0.01798545141026,51.44941241300166],[0.019165567258724,51.44928052221057],[0.020467215656524,51.44913043223955],[0.021567400330175,51.449013380205585],[0.021927617305417,51.44895862012617],[0.022131439876784,51.448718661510476],[0.022140595580752,51.44866537139418],[0.022179304205098,51.448531648436216],[0.022196795896409,51.44843874745958],[0.02229378895819,51.448257179915444],[0.022401782509352,51.44812585759775],[0.022459504836228,51.4480330715679],[0.022678702908747,51.44765250934705],[0.022820188049516,51.44743331367256],[0.022942386651355,51.44720465132594],[0.022751161726506,51.447141423751894],[0.021531886714707,51.4467774968142],[0.021210079020705,51.4466913461213],[0.021234011634272,51.44570173983578],[0.021262223478066,51.44523358219951],[0.021263092472191,51.4449926293524],[0.021421156146513,51.44465987262139],[0.021496481625593,51.44444451643541],[0.021483399721801,51.44444114596004],[0.020596873669479,51.444210908844475],[0.021098250560356,51.443409147517286],[0.021482928156266,51.44273516974293],[0.021553980317977,51.44271596388704],[0.022074381958097,51.442573932088564],[0.022776194856712,51.4423675439766],[0.023259197151196,51.44219288843663],[0.023638548854675,51.442083761135684],[0.024173798169643,51.4419531508611],[0.0244175754391,51.441901292510586],[0.024673010869889,51.44185282836072],[0.02500439808864,51.441796758330966],[0.025416239093745,51.44173830821369],[0.026217920394013,51.44164443931886],[0.026662291165442,51.44160529086478],[0.026852484308775,51.44157862753339],[0.027281126782584,51.441543344794496],[0.027767544718521,51.441510657063624],[0.028216041851234,51.44153256488965],[0.028563261802894,51.44157690138063],[0.028648783145291,51.44158980560664],[0.028880607758316,51.44162445102894],[0.028895112017179,51.44162779605727],[0.029359006161337,51.441705262346254],[0.029344754594435,51.44164338658083],[0.029082574517133,51.441475313098955],[0.029085784588916,51.44138445617097],[0.028970154639342,51.44127578806387],[0.0288830879208,51.44112895634688],[0.028821015436815,51.440930357702314],[0.028698977863454,51.440677057478005],[0.028576836686512,51.4404535165933],[0.028571057849261,51.44019191089041],[0.028725376422835,51.43974674060035],[0.028875887580594,51.439376344825185],[0.028865876398917,51.43921469387004],[0.028817524635733,51.439033838150635],[0.02881376452906,51.43878568280798],[0.02868920510363,51.438767161258745],[0.025989265024691,51.438365159311765],[0.02596814416054,51.43844014333213],[0.024790848636306,51.43823743958917],[0.024762852688229,51.43815701113027],[0.024784289764275,51.437925501921875],[0.024871604632242,51.437558001115434],[0.024889377987575,51.43721148016339],[0.024930286934744,51.43709569840957],[0.025029002147364,51.436822397926534],[0.025126234709937,51.436775766781835],[0.025289133078348,51.43610030264893],[0.025285648369507,51.43608588858406],[0.025269271178553,51.43601065359473],[0.025375951895859,51.43568956685229],[0.025500231670001,51.43573416839172],[0.025744729971484,51.435991648600904],[0.026271539712336,51.43619210463325],[0.027240283504933,51.43655932590075],[0.027653082783655,51.43655578133911],[0.027690423095809,51.43655513534965],[0.027701393777336,51.43650819631492],[0.027992842665348,51.43649416355577],[0.028526652070567,51.43642918645368],[0.028642501384136,51.4364145950135],[0.02867403221704,51.436411352190184],[0.028677861827527,51.43640139664117],[0.028867794856113,51.43591425426994],[0.028968290434447,51.435486287287766],[0.029023813269932,51.43505271567655],[0.029065762497736,51.434666218157915],[0.029033455407462,51.43436012028411],[0.028916494403369,51.434220998241585],[0.028603579317792,51.434042024823896],[0.028584333552945,51.43403067061948],[0.029107889388486,51.433767093842356],[0.029607582877108,51.433516604148615],[0.029897341567081,51.43336855123416],[0.029861892942586,51.43334758859298],[0.030053755901302,51.433228291353146],[0.030167669455295,51.433138123904655],[0.030273501915009,51.43309044038782],[0.030501808153028,51.43301726037331],[0.031118451360116,51.4327107065337],[0.031357720422187,51.43259058554933],[0.031381659418951,51.43257938233623],[0.031046858639416,51.43220112132887],[0.031147651807381,51.43210407795764],[0.031350255278321,51.43229394683874],[0.031430096156014,51.432374374265876],[0.031531681530034,51.43249038572513],[0.031587696305953,51.432555133491086],[0.032158974126583,51.432362637570115],[0.032218453088872,51.432115183507996],[0.032451748482485,51.431892674966534],[0.033223757403657,51.432235388451666],[0.033700523188545,51.43169920892129],[0.034646009292766,51.432093743287034],[0.037209446451414,51.433153576291375],[0.037669247801018,51.43333527750839],[0.037698570668197,51.43334645503202],[0.037627220832705,51.43290798212843],[0.037590320030591,51.43275848639778],[0.037551805283494,51.43247407497162],[0.037550625470533,51.432415568916184],[0.037538991596489,51.43238070917204],[0.037487469783623,51.432225174406675],[0.037485655973973,51.43208576706361],[0.037517931088897,51.43177675026711],[0.037504129261394,51.431597185069435],[0.037603184521638,51.43146141824297],[0.037521832298534,51.43137922317777],[0.037612645018039,51.43118884896165],[0.037652027139096,51.43110356594242],[0.037719160208961,51.43096484779485],[0.037804034355565,51.430609065997885],[0.037814195302039,51.430546856538804],[0.037832468033252,51.430440363861415],[0.037919433739199,51.43022758060283],[0.038015567959509,51.43002893234708],[0.038170350112605,51.42949833260008],[0.038112890124324,51.4294678659435],[0.038119560238035,51.42945516358355],[0.038221482546415,51.429224049523114],[0.038297930258019,51.42900155955111],[0.038275893287417,51.42879957202286],[0.038332288636647,51.42802794590481],[0.038266094663133,51.42799574327623],[0.038166158733661,51.42794893387399],[0.037831142766011,51.42779023781671],[0.037835952237628,51.427770375611466],[0.037857273325835,51.42760179705952],[0.037875880456388,51.42760147351166],[0.038463841899997,51.427591248290696],[0.038436634480868,51.42717448337078],[0.038570650345761,51.42669458945406],[0.038613301963279,51.426520335423696],[0.038662089704967,51.42651858772858],[0.038772701702005,51.42651486549132],[0.038819282757351,51.42623706505737],[0.038826780918398,51.4260831111616],[0.038940914524722,51.42609191386652],[0.038943118990922,51.426077491087646],[0.039004926816011,51.42568884535647],[0.039021617053024,51.42557887371483],[0.039032677672913,51.425504961085196],[0.039045319795871,51.42536799916313],[0.039039424522636,51.42513965903522],[0.039029231428718,51.42478013576208],[0.039028659001038,51.42467136347585],[0.038824586327756,51.42467491390082],[0.0386661980168,51.42463901111914],[0.03746876085523,51.42355816782819],[0.036185885351955,51.42236551960074],[0.034960663689411,51.42311528236466],[0.034566046897196,51.42339462882364],[0.034336870780744,51.423612575560746],[0.034001104235054,51.42388999943629],[0.03376413843802,51.424092886656425],[0.033517503665693,51.42423831357156],[0.03324089194953,51.424392441175776],[0.032894397107092,51.42455668070711],[0.032506454409828,51.424794549040826],[0.032335589786606,51.42486493916879],[0.032161602455577,51.424931787087516],[0.031468521339133,51.42536023184712],[0.03121195827411,51.42550942199024],[0.030780557978799,51.425677014629564],[0.030292865479378,51.42586976466041],[0.030084558485947,51.42597325491146],[0.029948065682386,51.42607541101309],[0.029580365266187,51.42644417651889],[0.029120829137033,51.4267533971514],[0.028442932616789,51.427167086327536],[0.02721410225032,51.428071460647274],[0.026909519100707,51.42824044115467],[0.026061209183224,51.42873887455082],[0.025410554496952,51.428989351307095],[0.025339946297633,51.42895371151576],[0.025080901529165,51.42882234522672],[0.024459503186058,51.42853001956946],[0.024205845725425,51.42842382089658],[0.024003360671925,51.42836438624746],[0.02371805649597,51.42825864315623],[0.023707300208989,51.42820848351973],[0.023478966899139,51.42808746161393],[0.023193407826052,51.42787653580058],[0.022948289167839,51.42776479288218],[0.022528463307449,51.427607427354204],[0.022264621906889,51.42749600612385],[0.021893426173808,51.42730093921378],[0.021670949129982,51.42718071181673],[0.021513862956944,51.42710970147032],[0.021537985031072,51.427035475492445],[0.021473309515697,51.427005125210336],[0.021135275231371,51.42684373676681],[0.021042434711926,51.426825559284154],[0.020912697754612,51.42681790723225],[0.020905507917702,51.426818930235655],[0.020201849350789,51.42691107490151],[0.0199625714602,51.42696644361246],[0.019689992742332,51.427046659367],[0.019494911805725,51.42702844449755],[0.018775240122423,51.42705073260828],[0.018587781810427,51.42700901030316],[0.018340866887694,51.42695572532345],[0.018140493621717,51.42694389251396],[0.017893898801036,51.42693015813728],[0.017646750083212,51.426903846443565],[0.017435747212355,51.426849941305335],[0.01721525814802,51.42677453259248],[0.016886247924361,51.426621067874706],[0.016127449950762,51.426247453694515],[0.016048161879784,51.42620836158181],[0.015673649682214,51.42616616624155],[0.014981563028032,51.42616278401487],[0.014566840592784,51.42618519705552],[0.014493716977439,51.42618915106757],[0.014107516672549,51.42617511126751],[0.014260554170584,51.425631178999836],[0.014395531471368,51.425232209808094],[0.01351309068193,51.42508554984022],[0.013344846761477,51.424695477040466],[0.012226275498589,51.424184084314575],[0.012224813917635,51.424183210386104],[0.011813430285316,51.42405173352969],[0.011618261600923,51.42370167753916],[0.011261754633107,51.423609802778266],[0.010986113009126,51.42349046768709],[0.01069025149417,51.42326979930466],[0.010147809727327,51.422678377144905],[0.009966707729103,51.42248360824374],[0.008928206790177,51.4228440325779],[0.008664680885499,51.422935844777264],[0.008076755204928,51.42304301463378],[0.007840366734442,51.42247420719497],[0.007502050572767,51.42177678693122],[0.007349435027711,51.4213792458177],[0.006970568209165,51.42146664676244],[0.006848110693027,51.42149481550239],[0.006786195068091,51.421361921275206],[0.006722657089505,51.421224469775936],[0.006870908588659,51.4211922633614],[0.006735973349436,51.42093556536032],[0.006297820006385,51.421014989089436],[0.006124221172994,51.420760840251674],[0.00605344576465,51.42068824196539],[0.006023756993346,51.42060334294754],[0.00600612591192,51.4204633971043],[0.005957054060791,51.42029602980098],[0.005901460558035,51.420174714196804],[0.005843844916361,51.420074919835336],[0.005725018798422,51.419923220597056],[0.005619536271966,51.419813546976656],[0.005507019052063,51.4197057017926],[0.005228108537147,51.41931571331785],[0.005514903520318,51.41913270913882],[0.005373400825881,51.41902095464451],[0.005328734421793,51.4189866570548],[0.005467354182238,51.418669536830016],[0.005672021669245,51.41851490833727],[0.005557172087249,51.41845394224458],[0.005138850835491,51.41823005147423],[0.003493463131472,51.417404749839065],[0.003213619126177,51.41758394431814],[0.001728842418327,51.418558054500316],[0.00107644486608,51.41827692389023],[0.000848338068252,51.418158551563494],[0.000599775337378,51.41803063875792],[0.000518038715749,51.41793754677049],[0.000135355316158,51.41777146641625],[-7.7186004903e-05,51.417645544557445],[-0.000132614499863,51.41756288133199],[-0.000149001529138,51.417548776611305],[-0.000164085119819,51.417534649645255],[-0.000176206364645,51.41752047212532],[-0.00018836681259,51.41750539625014],[-0.000199144542309,51.41748939775512],[-0.000200684094206,51.41748672695808],[-0.000206920720575,51.41747424706188],[-0.000211814706862,51.41746264327678],[-0.000215168277919,51.417451013205024],[-0.000218521847195,51.41743938313315],[-0.000220492705985,51.41742683044291],[-0.000221041645345,51.41741425348831],[-0.000221551374395,51.41740257488758],[-0.000223522230492,51.41739002219718],[-0.000224031958468,51.4173783435964],[-0.000226002812659,51.417365790905905],[-0.000226555670284,51.417353124115735],[-0.000280056604913,51.417051066309604],[-0.000317427197401,51.41655616248058],[-0.000316593408598,51.41654266290642],[-0.000303058481403,51.416458822799015],[-0.000347101692574,51.416338116316766],[-0.000511384005008,51.416266300523716],[-0.000875017695175,51.416104297117336],[-0.000857669048908,51.41607523242484],[-0.000754015972951,51.415912538997276],[-0.000852279227337,51.41590252804033],[-0.00340404012917,51.4156609513461],[-0.003427014313312,51.41562897794483],[-0.003598320379049,51.41555907557091],[-0.003492614336319,51.41530995353442],[-0.003283979925867,51.415050087441536],[-0.004993829079696,51.41458996028172],[-0.005020361485137,51.41467231294585],[-0.005026767808219,51.414691301484616],[-0.005049167516083,51.41470516815265],[-0.005147376901351,51.414761680379364],[-0.005153523417494,51.4148193224664],[-0.005162371096815,51.4149129714431],[-0.005225510741766,51.41498246185803],[-0.005416011656579,51.41529685617267],[-0.005511474683799,51.415481881570095],[-0.005534077731546,51.41578802384688],[-0.005999448705062,51.41603427408889],[-0.006064325218865,51.415998518043935],[-0.006111472095015,51.41597234955341],[-0.0062893681859,51.41598256838825],[-0.006565017349034,51.41599175275411],[-0.006681821091971,51.41549010721305],[-0.006703527427668,51.41519011301097],[-0.006693065228525,51.41493452275272],[-0.00662733665729,51.414660101857415],[-0.007584942674462,51.414499189625765],[-0.007692005974482,51.414483029416054],[-0.007847011754382,51.414457794881876],[-0.00817909357755,51.41439331597056],[-0.008486029843449,51.41434809738471],[-0.008704913024065,51.41427450102367],[-0.008923466659641,51.41417572603113],[-0.009052176877683,51.41409250569871],[-0.00916429564966,51.41399542812501],[-0.009242905283204,51.4138726984755],[-0.010545382020113,51.41355130118903],[-0.011845572702897,51.413549992512],[-0.012790569287468,51.41357770853748],[-0.013513090998772,51.41359804977626],[-0.014262612730474,51.4136575020117],[-0.0142656173282,51.41378791108598],[-0.014266104835942,51.413809495869806],[-0.01438882817477,51.413831353833544],[-0.014377742879829,51.41392025906129],[-0.014558788242646,51.41392332656267],[-0.01430968363749,51.41492717887565],[-0.014307950341411,51.414934341678865],[-0.014274814386217,51.41493557824505],[-0.014152380946182,51.414939796723786],[-0.014152074294864,51.415080937924806],[-0.014152635719933,51.41510081581662],[-0.014426138660414,51.41509376294517],[-0.015223839567885,51.41503796149428],[-0.015846351343947,51.41501074421458],[-0.01646258989721,51.41499420570562],[-0.016569068159387,51.41499151281157],[-0.016885427741249,51.41499147270073],[-0.01736468470201,51.41501666334126],[-0.017987163429598,51.415055961699224],[-0.017981887526688,51.415079247017886],[-0.017846680869532,51.41574331464481],[-0.020261339435738,51.415977511055765],[-0.020306382369787,51.41599984847894],[-0.020357153782135,51.416024080695514],[-0.020468198413056,51.416050230045336],[-0.020540702607995,51.41603527237157],[-0.020582930021478,51.41599103459578],[-0.020596388857495,51.41597867563482],[-0.020695267209419,51.415951577049825],[-0.021040479298963,51.41601943953476],[-0.021040426795146,51.41605360143366],[-0.021041570895974,51.41615889607344],[-0.021460386011786,51.41635116602375],[-0.021494880554551,51.41631848463639],[-0.021718667396447,51.416466105887174],[-0.02196124906529,51.41660963873553],[-0.022185542951278,51.41674558036243],[-0.021736291017389,51.417291074870526],[-0.022555314347027,51.41754142996442],[-0.021972293946397,51.417853529977876],[-0.021634860383021,51.41810774084913],[-0.021478980893127,51.418284913331874],[-0.021384399122207,51.41841286531601],[-0.021308589587272,51.41860037961799],[-0.021265788348954,51.41882809799815],[-0.021235737721538,51.41935639430375],[-0.021218721982646,51.4194181393897],[-0.021192900486094,51.41948333186806],[-0.021088279539739,51.4196075180166],[-0.021041497750832,51.41969123594888],[-0.021011951007054,51.41974108213841],[-0.020904308663752,51.41983635855588],[-0.020808893990582,51.41991484989975],[-0.020777550698258,51.41994039214563],[-0.021039792142344,51.42009585611544],[-0.021098947423706,51.42012652267824],[-0.021339516933261,51.42025114322994],[-0.021606571286535,51.42039410088024],[-0.021674672912838,51.420448292692726],[-0.021633297913142,51.42047546386084],[-0.020959598730369,51.42092007205053],[-0.020947754590537,51.42092796321955],[-0.021324227723055,51.42117076235552],[-0.022102273351248,51.42167134462232],[-0.022239453430683,51.421759965628695],[-0.022263245126212,51.421774751446854],[-0.022355929629211,51.42169360570333],[-0.022394771438347,51.42165919937654],[-0.02255208195092,51.42158094203439],[-0.022606105267334,51.42156297415306],[-0.0227181998787,51.42169702133836],[-0.022933169265568,51.421947968358566],[-0.023113396332534,51.42217135833367],[-0.023157169591509,51.422226037881174],[-0.023461133424923,51.422514445777566],[-0.02370657867643,51.42272715754037],[-0.023926634843595,51.42286041687432],[-0.024188283650653,51.42303024787463],[-0.024427454657794,51.42315483830647],[-0.024770206386694,51.423278387076344],[-0.025115389095096,51.42337860129538],[-0.025488332662387,51.42347038191105],[-0.025598187398324,51.42355763949089],[-0.025665678896314,51.423626202925625],[-0.025748945388352,51.4236644654115],[-0.025771471945285,51.42367563311145],[-0.025777692112229,51.42369641533095],[-0.025796744537828,51.423755172512664],[-0.025818971804914,51.42374026360901],[-0.025999788539006,51.42361744666062],[-0.026015240809558,51.42362489908168],[-0.026189997664164,51.42370875414998],[-0.026836250971572,51.4240002202542],[-0.027040921880884,51.42409176981779],[-0.027179311903763,51.424149928533396],[-0.027423766371871,51.42428709803885],[-0.027792078141085,51.42448397846388],[-0.027794419633957,51.42449570510981],[-0.027810737710489,51.42458498256099],[-0.027824761966687,51.4246283714556],[-0.027843740025591,51.424688925063535],[-0.027895180058467,51.42469518477498],[-0.028413556638477,51.42491616470656],[-0.029469667436784,51.425379929585475],[-0.029644662784807,51.42545578214375],[-0.029793256535094,51.425514019356896],[-0.030106854763393,51.425646052354416],[-0.030241997754711,51.42568338548688],[-0.030299207946357,51.42569064012959],[-0.030425047256763,51.42570713926728],[-0.03059964795002,51.425695689077706],[-0.031021594406446,51.425649736590074],[-0.031997449215535,51.42553666857479],[-0.031942591872542,51.425273144214785],[-0.031820044138993,51.424710818152505],[-0.032367202956272,51.42469842920865],[-0.032994987095409,51.42468379484711],[-0.033129023548945,51.4246446895512],[-0.033373551427738,51.424642499943275],[-0.033587128224284,51.42465956891145],[-0.03358674256533,51.424668552620595],[-0.033587892826795,51.42471082576578],[-0.033662402674426,51.42471567197811],[-0.034239007120277,51.42475501234432],[-0.034238236055171,51.42477297976932],[-0.034227004493561,51.42510102281023],[-0.034261685272056,51.42509710941645],[-0.034493034532061,51.42507042293388],[-0.03488410179909,51.42500865541233],[-0.035610701816911,51.42500465403048],[-0.035873957068711,51.425002773082944],[-0.036157205866043,51.42500482263845],[-0.036497208656328,51.42499433709347],[-0.037485449146236,51.424992909181626],[-0.037757601616967,51.424716882756364],[-0.038085426147728,51.42438425055867],[-0.038310434015858,51.424134404173785],[-0.038476189990396,51.42395818413906],[-0.03861728916379,51.4239894040728],[-0.038963354711824,51.42406981364159],[-0.03953730292572,51.424204379342505],[-0.039810476483241,51.424242212247826],[-0.039920860735843,51.424251250558086],[-0.040315642960566,51.424301904266606],[-0.040710963639332,51.424306715763805],[-0.041068874355192,51.42424617140185],[-0.04119248269936,51.424181710141724],[-0.04135372885442,51.42407742200025],[-0.04166645646015,51.42386139985678],[-0.041712438285544,51.42382890455298],[-0.041607703303696,51.42365445326713],[-0.042836647856086,51.42323707146733],[-0.042871671989322,51.42322507011616],[-0.042942618659147,51.423382683832074],[-0.043015133045649,51.42340367308742],[-0.043319353578619,51.423283789254334],[-0.043554566579685,51.423199612372116],[-0.0437790941295,51.42316290456429],[-0.043825421731407,51.423155586687855],[-0.043690799969678,51.42290602002011],[-0.044429544430345,51.42275284013772],[-0.046288501402408,51.42236661058839],[-0.046265814418376,51.42262883518719],[-0.046018679305127,51.422622917023126],[-0.046016967833586,51.42276313510633],[-0.046015358409841,51.42280086697733],[-0.046890909932391,51.422812764400256],[-0.04724188887296,51.42281142085838],[-0.047241697394828,51.42281591275104],[-0.04723116963065,51.422859789149605],[-0.048553620723836,51.422845856017894],[-0.048747084438635,51.422831096883314],[-0.049103975143158,51.42279118848213],[-0.049332384101816,51.422766221888786],[-0.049768977521017,51.42274561836323],[-0.050007879967714,51.42271093589387],[-0.050380916764231,51.422664999145724],[-0.050487671782768,51.42262272320913],[-0.050737678561642,51.422561163582934],[-0.051253548919731,51.42253917602343],[-0.051773803716063,51.42251725907937],[-0.05176204114102,51.422690663555116],[-0.051764651476958,51.422969491835104],[-0.051809059118663,51.423581740731116],[-0.051865039270917,51.42358446931029],[-0.052531113052327,51.42361711565263],[-0.054780364217216,51.42372728983154],[-0.054788276148549,51.423708541823096],[-0.054891438147297,51.42348271316754],[-0.055154700346217,51.422938502827805],[-0.055792080048668,51.42307143414815],[-0.055807727731177,51.423074390774744],[-0.055830738115491,51.42300725642146],[-0.055840075754932,51.42299122904071],[-0.056310664534184,51.42298554931735],[-0.056415001827628,51.42296660231474],[-0.056430763863998,51.42296686370802],[-0.056580439792222,51.422966648740115],[-0.056735613731212,51.422971019821254],[-0.056788706922508,51.42297190015025],[-0.057014331392114,51.423012500554755],[-0.057747822536613,51.423116448028686],[-0.058125046989342,51.42317304378731],[-0.058121821868409,51.423181980502555],[-0.058080644069469,51.42327209875608],[-0.058130131697265,51.42329089903748],[-0.058430372876045,51.42340384510703],[-0.059275105200093,51.423698418946415],[-0.059603960000435,51.42381354391269],[-0.059874904158289,51.42390433490922],[-0.05998549672486,51.423942126217796],[-0.061110169395771,51.42435369707879],[-0.06142314869104,51.42446864413386],[-0.061493182392348,51.424512056218944],[-0.061484642226156,51.42457934106489],[-0.061574079126388,51.424674317868586],[-0.061445292119418,51.42479454362228],[-0.061638107422112,51.42486246179612],[-0.061977556063646,51.42499663450803],[-0.06216610259575,51.425064571113694],[-0.062327309429212,51.425128369447926],[-0.062603445450133,51.425197663524706],[-0.062618812027742,51.4251736441522],[-0.062813226435669,51.42520382819468],[-0.062921550053827,51.42522809397041],[-0.063462312388065,51.425263101815965],[-0.063460679206312,51.42530173244811],[-0.063489479101337,51.42530220831412],[-0.064429147414247,51.42532761989747],[-0.064532012069686,51.4250713015755],[-0.064604251256847,51.425062605368005],[-0.064662627725448,51.42507885259989],[-0.064870164652612,51.42513532132758],[-0.064874585707564,51.42520192137675],[-0.064876595169151,51.425221732868046],[-0.06505835854713,51.42524541118953],[-0.065076852033559,51.42524841355199],[-0.065287790304661,51.425260885991655],[-0.065535606636471,51.425284754920185],[-0.065841648716909,51.425328463530896],[-0.066062582304008,51.425070496288384],[-0.066742862412714,51.42534333276544],[-0.066931867811217,51.425397784004716],[-0.067469402470799,51.42561342186837],[-0.067967323802566,51.42581231187221],[-0.068006976334792,51.42582824876156],[-0.067934663160227,51.42590616990991],[-0.06791506543312,51.425926524155734],[-0.068244107132567,51.42597060559598],[-0.068663029467384,51.42599548995183],[-0.068690369764518,51.42599683949726],[-0.06878739996332,51.42591213306422],[-0.068842450581749,51.42583572498677],[-0.068881800002723,51.42561692411514],[-0.069229040734232,51.4257413148747],[-0.069606632197833,51.425894163816096],[-0.070274476824725,51.42609134749718],[-0.070317007785335,51.4261037349371],[-0.070344045429043,51.42611227122026],[-0.070359619443112,51.42611702270348],[-0.07040080887737,51.4261302870388],[-0.070443420584779,51.42614357477518],[-0.070484610067775,51.42615683908151],[-0.070527103303991,51.426170124836666],[-0.070571213021949,51.4261816391607],[-0.070613938353722,51.426192231664686],[-0.070659546048744,51.426201972588224],[-0.070665315732716,51.426202966580334],[-0.070735263086201,51.42621490616962],[-0.070805442512928,51.42622415249682],[-0.07087696353707,51.42623252185094],[-0.070948560259404,51.42623909438042],[-0.070982936376182,51.42624235722007],[-0.071054689485257,51.426248033245095],[-0.071126361924186,51.426252808885096],[-0.071198228561498,51.42625578965042],[-0.071346034451498,51.42626361609363],[-0.071550755803057,51.42628586405513],[-0.071927000250912,51.426301943355256],[-0.07221895088499,51.426303149781106],[-0.072380432109762,51.426293219589674],[-0.072788752096391,51.42626577201792],[-0.073071951058372,51.42623536695158],[-0.073395295691313,51.4262092171902],[-0.07365171178739,51.42620084578324],[-0.07381267684115,51.42616932882448],[-0.073858927458387,51.42616379584319],[-0.073906638094617,51.42615738782464],[-0.0739356275886,51.4261533691689],[-0.073930440917242,51.42620902273925],[-0.073984810393247,51.426523761654394],[-0.074166162203594,51.42706803738526],[-0.074327090227746,51.427449345786975],[-0.074490718483529,51.42762824062282],[-0.074795687070835,51.42810720997974],[-0.074944193649974,51.42837225085884],[-0.075028505521991,51.42855613518892],[-0.07509328677776,51.42879552736717],[-0.075048438554683,51.42917965804423],[-0.074970262634747,51.42953267487906],[-0.074927748580074,51.42965523120524],[-0.07489355830536,51.4297490659357],[-0.073586058206131,51.431351648842316],[-0.072861682527331,51.43208699982905],[-0.072764037676737,51.432186173582494],[-0.072708697465007,51.432235608303984],[-0.072630058509836,51.43229185197439],[-0.072540034714375,51.43234521133442],[-0.07246088555196,51.43238256724337],[-0.072383376728894,51.43241194886685],[-0.072215937438393,51.4324586406929],[-0.072076901121979,51.43248152614478],[-0.071607788747143,51.432483698019475],[-0.071334900980385,51.43247111682781],[-0.071109887338246,51.4324512317629],[-0.070943143471389,51.432447588522336],[-0.070695269536501,51.43245789283788],[-0.070392923132748,51.432496967268236],[-0.070187212046702,51.43253133896373],[-0.069984156242169,51.43257024908619],[-0.069622272900473,51.43265688782939],[-0.069529147822311,51.43268241432989],[-0.069021565246711,51.43284576451368],[-0.068602148395909,51.43299986712528],[-0.067753280711836,51.433444462504376],[-0.067151512866545,51.43369174803669],[-0.066708786856099,51.43392277464876],[-0.066144313330317,51.43430911817595],[-0.066042949926552,51.434391952923285],[-0.065973995750374,51.43445734210465],[-0.065909082129889,51.434530978936515],[-0.065834261548339,51.43463133273356],[-0.065788000378649,51.43470428838234],[-0.065606808496074,51.43507897345772],[-0.065415780165269,51.43541124229745],[-0.0650863545431,51.43591932066227],[-0.064800271440726,51.436288676846274],[-0.064611184140355,51.43667860313754],[-0.064560326880765,51.436792836994805],[-0.064530529350461,51.43688314524124],[-0.064467163822787,51.43698737327442],[-0.064420272965294,51.4370414387206],[-0.064364879860354,51.43709176769174],[-0.064244894809847,51.43717429338488],[-0.064158152638429,51.43721691242352],[-0.063982776897428,51.43728234079099],[-0.06355071809593,51.437495551583],[-0.06345674769721,51.43754074772866],[-0.063457363907196,51.4376271530283],[-0.063543625835557,51.43776702613852],[-0.063700695824692,51.43792973512344],[-0.063706842470466,51.437989171494955],[-0.063733493123767,51.43820897081707],[-0.063752272791022,51.43899079261543],[-0.063800932856952,51.439540173794136],[-0.064053564226914,51.44084917299937],[-0.064280017553484,51.440903257601256],[-0.064671232651077,51.441008608891394],[-0.065026203019786,51.44115750203609],[-0.064611660784473,51.44153372713955],[-0.064277466340616,51.441847447843756],[-0.064218727802886,51.441909408653906],[-0.064165760617323,51.44197236376135],[-0.064082742384848,51.442097843273956],[-0.063870415238066,51.44252595199373],[-0.063733619639969,51.442868103869515],[-0.063665552081015,51.44335532273174],[-0.063749729854243,51.44415341750665],[-0.063743840361996,51.444225331062725],[-0.06371330112654,51.444537772581036],[-0.063640012138788,51.44480896247032],[-0.063484143900673,51.44526236626639],[-0.063365083133736,51.44555806201773],[-0.063244635938015,51.445852835725276],[-0.063083855407903,51.446183802328136],[-0.062901421982759,51.446448783048425],[-0.062569005885508,51.44695761381686],[-0.062343199237002,51.44719310842483],[-0.06221994682414,51.44735208396708],[-0.062079743161563,51.44753586156232],[-0.061826897693184,51.44779608049658],[-0.061383557215004,51.44813855473147],[-0.060972612544589,51.44842762249956],[-0.059677657141016,51.44899882333531],[-0.059061508850621,51.44930786198148],[-0.058687433795359,51.449507631139994],[-0.058618865066714,51.44956313329696],[-0.058100675337292,51.449940316099116],[-0.057589473405885,51.450317612427675],[-0.057561284308614,51.45033872160755],[-0.056543463414779,51.449939681643706],[-0.055435470293747,51.44949328729787],[-0.05474878210402,51.44919412031554],[-0.054331297654503,51.44899381410346],[-0.054081349826436,51.44881345877972],[-0.054007586889886,51.44875379847576],[-0.053953919379818,51.44872944331456],[-0.053908369496972,51.44871789896867],[-0.053787805912786,51.44870960425509],[-0.053644935282589,51.44871802026738],[-0.053579618590688,51.448730420916355],[-0.053464526865427,51.44876366119634],[-0.053069936442934,51.44883712025216],[-0.050954580330909,51.449507872117636],[-0.049935444643781,51.449848819588986],[-0.049366360090202,51.45003182980448],[-0.049086665112823,51.4501125814536],[-0.048721704959128,51.45013078029728],[-0.048239788843183,51.45009219097411],[-0.047757950238618,51.45005180292849],[-0.046941496906553,51.44996088769238],[-0.046511438816944,51.449919559184714],[-0.046150782447411,51.449873092798036],[-0.045875181867815,51.45019133440373],[-0.045483146750139,51.45064338503144],[-0.045178878018692,51.45096024800665],[-0.045196430858192,51.45105493708246],[-0.045124197146081,51.451229129941325],[-0.045000558511839,51.45129269597715],[-0.044873993844682,51.45132474762687],[-0.04450793879336,51.45170710532345],[-0.043886136488834,51.452414413112166],[-0.043662745816046,51.45265710467987],[-0.043189684557416,51.45311858363649],[-0.042989324452324,51.45319165502397],[-0.042445619987904,51.45388938097667],[-0.041648593385881,51.454990305457436],[-0.041825074035708,51.455037305165334],[-0.041962082938929,51.455099827550676],[-0.042100316025648,51.45516425814576],[-0.04274553628323,51.45549247402798],[-0.043452255565049,51.45593139225443],[-0.044632360136237,51.45657697471327],[-0.044995724812685,51.456661249096896],[-0.046160404696563,51.45696304610275],[-0.046103167418049,51.45712220617913],[-0.046001597830423,51.45717445397408],[-0.045781302009492,51.45768061159515],[-0.045779878801388,51.45768058787038],[-0.045742763120848,51.45781041579383],[-0.045717417132399,51.45789809644512],[-0.045615516029733,51.458158100059336],[-0.045335754878088,51.45898079646149],[-0.045303444293967,51.4590953312486],[-0.045242640870362,51.459407263444284],[-0.045177038216088,51.45983149204988],[-0.045123283717519,51.46028118040006],[-0.045114113658219,51.460595771495896],[-0.045105640756122,51.460930152458786],[-0.045129030812791,51.46132439949095],[-0.045188483906094,51.46181912801146],[-0.045236811577316,51.46220480066335],[-0.045346284956641,51.46260677595846],[-0.045457295951442,51.46294224991034],[-0.045720325977357,51.46352308087914],[-0.045999093655112,51.46397462596409],[-0.046213770285111,51.464239905960234],[-0.046363595788288,51.46440611267102],[-0.046586778276577,51.464608513012365],[-0.046773004241036,51.46473127414017],[-0.047037514505651,51.46490829080936],[-0.047330531973918,51.465026536860506],[-0.047483244079399,51.46512527444589],[-0.04756167802228,51.46517602628268],[-0.047720770404836,51.46522542421297],[-0.048540161292786,51.46562671951444],[-0.048206059503487,51.46589805309265],[-0.048629169379813,51.466072402172486],[-0.049055742740192,51.46622963623533],[-0.049406727726438,51.46633895248372],[-0.049623132434441,51.46639739241538],[-0.049670083852905,51.466409860621994],[-0.049904998262447,51.466471304976665],[-0.050278576291148,51.46655753021672],[-0.050519948261582,51.466601190414615],[-0.050888398096793,51.46663788286127],[-0.050822293035229,51.46667094622657],[-0.050633972519466,51.46676400921416],[-0.050575137733554,51.46679359728529],[-0.051000221508941,51.46712260023772],[-0.051319654475954,51.46736533864231],[-0.05132654238753,51.46737084718865],[-0.051128255336278,51.46746374531529],[-0.050881360665159,51.46758019818915],[-0.050994501009693,51.46773041575539],[-0.05144640757763,51.46834403990604],[-0.051684372119516,51.46857103900752],[-0.052040912106854,51.468954637470084],[-0.052281776075578,51.46921404782237],[-0.052151263546331,51.46933774091909],[-0.05178239982563,51.4696139909988],[-0.051686552393012,51.46970140021522],[-0.05168702283898,51.46975723653431],[-0.051801479445106,51.47008017484678],[-0.051980528414905,51.47060916043499],[-0.052173718564886,51.471210391272784],[-0.052756998598886,51.47293323215039],[-0.052763037696405,51.4738397133783],[-0.052747476078265,51.47630166030157],[-0.052699235016703,51.47800861574401],[-0.0542675331044,51.478583136619065],[-0.054328549853766,51.47860581525117],[-0.053947279980117,51.479205509191715],[-0.053953017694411,51.47920740243837],[-0.054018417547061,51.47922475992442],[-0.053999797377073,51.47925771418978],[-0.053707999102873,51.479786072602984],[-0.053695418308471,51.479811035996306],[-0.053654071199351,51.47980046056447],[-0.053621309688027,51.47979182565528],[-0.053521767991391,51.47996556969665],[-0.053478066401919,51.48007722021386],[-0.0534701951752,51.480161686199445],[-0.053520298474848,51.48023713563242],[-0.053573270689453,51.48024520706587],[-0.053573508857607,51.480273080268134],[-0.053573411442328,51.48034230226795],[-0.053413227514275,51.480317167850856],[-0.053358869582379,51.48030817433151],[-0.053356803849715,51.480356686469726],[-0.053388294805607,51.480361704324224],[-0.053506901774796,51.48038165352689],[-0.053514276835061,51.480478958724355],[-0.05348937378138,51.48048933340655],[-0.053427828060656,51.480515281908],[-0.053306058109427,51.48077037656183],[-0.053268616400928,51.48083816943502],[-0.053218941347198,51.48092275043381],[-0.053187734583947,51.48097797078912],[-0.053156604262149,51.48103139438942],[-0.053168152711176,51.481030687129035],[-0.053260429410333,51.481030421211486],[-0.0532506958956,51.481055431829006],[-0.053118828361378,51.481447187637336],[-0.053052727187567,51.48174734761718],[-0.053017560616476,51.48196522259711],[-0.05297439308431,51.48240160340411],[-0.052942617414765,51.48264021183029],[-0.052811461044166,51.48264432690621],[-0.052813195422064,51.482670516834645],[-0.052818720052938,51.482744327216864],[-0.052857485625084,51.48274586997683],[-0.05295961894617,51.482748464978336],[-0.05295589902028,51.48280234367292],[-0.052949500477799,51.48291910842912],[-0.052978600256116,51.4833845584161],[-0.052921437155336,51.48340788241587],[-0.052922299163113,51.4834573421514],[-0.052800917211424,51.48346611457604],[-0.052832625777267,51.48356643099077],[-0.05289017990851,51.48356738673332],[-0.052982304791209,51.483568017490455],[-0.052984735774312,51.48358064396367],[-0.053118018648109,51.4843742533991],[-0.053013611902565,51.48438870195212],[-0.052964375267701,51.48439597545657],[-0.052999960536942,51.48460882201659],[-0.053001154986235,51.48461423589495],[-0.053040943911828,51.484831557369944],[-0.053097349254644,51.48516341856042],[-0.053169073452207,51.48516910446581],[-0.05319584077913,51.485218185184046],[-0.053249392629386,51.48521278123606],[-0.053314766300977,51.48523094772047],[-0.053423043170914,51.48529297876282],[-0.053551881896283,51.48551636323807],[-0.053560077878887,51.485795191547375],[-0.053140133341534,51.48584854322714],[-0.053181204456307,51.48596609608372],[-0.053079646140961,51.48598328902817],[-0.052949177139222,51.48600449686611],[-0.052946429785326,51.48610244304249],[-0.052940502130565,51.4862750439135],[-0.052920385605314,51.48634303443073],[-0.052893944461224,51.486386646726004],[-0.05285672695336,51.48644904912072],[-0.052844296854936,51.486470418884714],[-0.05288052129622,51.48660137646276],[-0.052901677210632,51.48667904238487],[-0.052933877489816,51.48673441651299],[-0.052994193436466,51.48684069178213],[-0.053030466815124,51.486867365282485],[-0.053156082194633,51.48696294768831],[-0.053186115267206,51.486968840366515],[-0.053254573132846,51.48698436104916],[-0.053321921385733,51.48702593447684],[-0.053406171952328,51.487077767437725],[-0.053515396984066,51.48721802770632],[-0.053564581021386,51.48728177464061],[-0.053728769384564,51.48751743268564],[-0.053977484477248,51.48793519370187],[-0.052889858757823,51.48763386144056],[-0.052631107799812,51.487552249934566],[-0.052622141872596,51.48756199011195],[-0.052500469844182,51.48771109248333],[-0.052412857955976,51.487774365862585],[-0.052174967238461,51.487813566781554],[-0.052119834911018,51.48782254002985],[-0.051750294540285,51.48780741066984],[-0.051308409750207,51.48779826995605],[-0.051115677748601,51.48782563309747],[-0.050770034121501,51.48792686975658],[-0.050738040170826,51.487933529967634],[-0.050644159369642,51.48787083680346],[-0.050544834811841,51.48790514585168],[-0.050464292358392,51.48793347403491],[-0.05038449392707,51.4880167438825],[-0.050308891156069,51.48809909453036],[-0.050344123006148,51.48811676146965],[-0.050108685352666,51.48833499136195],[-0.050169563390916,51.488361175881515],[-0.051958647950383,51.48913546929869],[-0.051466150426397,51.48943843277302],[-0.051151639869904,51.48955016691701],[-0.050817408668662,51.489617431170664],[-0.050345235914667,51.48974712956713],[-0.049657434354981,51.48986433966247],[-0.049713008348448,51.48994527561965],[-0.049358331041948,51.49002118574913],[-0.049260881585775,51.4900420398165],[-0.049220057926964,51.489985622226996],[-0.047550029241997,51.49036966269185],[-0.047595699840667,51.49044602963422],[-0.04656745393536,51.49074454634958],[-0.046566038057209,51.49047203360667],[-0.046567337441893,51.490341609268754],[-0.046164361613254,51.490366360751885],[-0.045927282903486,51.490219468051755],[-0.045831749482759,51.49016213754818],[-0.045521724957428,51.490235184215685],[-0.045115793893394,51.49033180344688],[-0.045135469299871,51.490377171740626],[-0.044758098942914,51.49044190159856],[-0.044737036060569,51.49036234781208],[-0.044576499912119,51.490142110986554],[-0.044552704337758,51.49012643104208],[-0.044498797946101,51.49010665292324],[-0.0427407386884,51.49002149310717],[-0.042357201732829,51.49002776668916],[-0.042225869562505,51.490035463144544],[-0.042508065029556,51.49024065308988],[-0.040343758321688,51.491062426868574],[-0.041055645439775,51.49182787012376],[-0.040070413054396,51.49216300909761],[-0.040555053997671,51.49278531058399],[-0.040563333239688,51.492794439006595],[-0.040553013332604,51.49279966061082],[-0.040370223533526,51.49282995928251],[-0.039966179535281,51.49294547154636],[-0.039934299247431,51.49295213073358],[-0.03990230025872,51.49295878792805],[-0.03987033979759,51.49296454674993],[-0.03983695502698,51.492970281754545],[-0.039803647324275,51.49297422002212],[-0.039771763917905,51.492978182089416],[-0.039737031902379,51.492982096528685],[-0.039703801263192,51.492984238040336],[-0.039687976709584,51.49298487250803],[-0.039654784607418,51.49298611564208],[-0.03962016820171,51.49298733495566],[-0.039587053181025,51.492986781343255],[-0.039553976704344,51.49298532935793],[-0.039519475928222,51.492983853550996],[-0.03948643800059,51.49298150318309],[-0.03945343862152,51.492978254442384],[-0.039420439247391,51.49297500569243],[-0.039386054123123,51.49297083475579],[-0.03935313185338,51.492965789260026],[-0.039320209591146,51.49296074375506],[-0.039287325884564,51.49295479987748],[-0.039255866487246,51.49294887980627],[-0.039223021347414,51.492942037547394],[-0.039191600517643,51.49293521909567],[-0.039174505877135,51.492932236224284],[-0.039133111925906,51.49292255396641],[-0.039093180843684,51.492911997148234],[-0.039051982725657,51.49290052012014],[-0.039013553087359,51.49288819036649],[-0.038973856417787,51.49287494040315],[-0.038935465377534,51.492861712260996],[-0.038898655903852,51.49284761154804],[-0.038860342021533,51.49283258665519],[-0.038823609709041,51.49281668919261],[-0.038788301717741,51.4928008155399],[-0.038751489323371,51.49278401770689],[-0.038717648092044,51.492767179655374],[-0.038707752136763,51.49276251910013],[-0.038666939853562,51.49274205830729],[-0.038627471769634,51.49272072097525],[-0.038589623828823,51.492697612712824],[-0.038551618673149,51.492675400816246],[-0.038513809371222,51.492651394166884],[-0.038478768561381,51.49262653480686],[-0.03844384648034,51.492601677422115],[-0.038410348725378,51.4925768438529],[-0.038386746882478,51.492556670856914],[-0.038234964725771,51.49246782691397],[-0.038124001692846,51.492402051008725],[-0.038091542830793,51.492386224809145],[-0.038057621138386,51.49237127313383],[-0.038023699468316,51.4923563214489],[-0.037989739247783,51.492342268117184],[-0.037954354768261,51.49232819094475],[-0.037917350192822,51.49231588466995],[-0.037883274311039,51.49230452639642],[-0.037846388464254,51.49229222208558],[-0.037809306795167,51.49228171250279],[-0.037770919555141,51.492271181061234],[-0.037732493755342,51.49226154797001],[-0.037693872125262,51.49225370960556],[-0.037653787652265,51.49224674575649],[-0.037650977677129,51.49224579972434],[-0.037620866106695,51.49224169978124],[-0.037590834651108,51.4922385001794],[-0.037560645929108,51.49223619694623],[-0.037530457210363,51.492233893705325],[-0.037500387184587,51.492231592443055],[-0.037475975685454,51.49223028488333],[-0.037376863907626,51.49222323204408],[-0.037315023649627,51.49221949998393],[-0.035238736315443,51.492633424887856],[-0.033327220899779,51.492996136262846],[-0.033304001437893,51.49300024188042],[-0.033247769909008,51.492868942506604],[-0.032910872784298,51.49293071719754],[-0.032550287213471,51.49300746653153],[-0.032581165532229,51.493026863790675],[-0.03241281277952,51.49305550438955],[-0.032064477500959,51.49311528671922],[-0.031937973642802,51.4931760942583],[-0.031061004394317,51.493336769210735],[-0.030435099666987,51.49345122039156],[-0.029947662480223,51.49356349956622],[-0.029815032668721,51.49303076601619],[-0.029769243484575,51.492924722713646],[-0.029629800977556,51.49268504131874],[-0.029333102503896,51.49218092555978],[-0.029007009436485,51.49162597036842],[-0.028386903899251,51.49080535827515],[-0.028169605231364,51.49050134530889],[-0.027845967765157,51.4900552080615],[-0.02751695578062,51.48970346538112],[-0.027285100618994,51.48943426718002],[-0.027103834518963,51.489294567996126],[-0.026901411035432,51.489111270130955],[-0.026797525329355,51.48901692398528],[-0.026598519473473,51.488853551207946],[-0.025981726023088,51.48839528241675],[-0.025122245662667,51.48778458643254],[-0.024843678981458,51.48759649629518],[-0.024692953248489,51.48748418810299],[-0.024398981878345,51.487320110655894],[-0.024143281858505,51.487171870636224],[-0.023824569758865,51.48698130350609],[-0.023554084397135,51.4868400050717],[-0.023517440001336,51.48682230619491],[-0.02344407147167,51.48678600805139],[-0.024201680850267,51.48618637026698],[-0.024611905395192,51.48586145708586],[-0.024733850573333,51.4857052855203],[-0.024759927569308,51.485667966353724],[-0.024847252236836,51.485546182982105],[-0.025029797313097,51.48529025278663],[-0.025201250152446,51.48502163924591],[-0.025207117526912,51.484984788720304],[-0.02522214220871,51.48463703467962],[-0.025289582778863,51.48434320502136],[-0.025295908996651,51.4841967727905],[-0.025578105651493,51.48343439898044],[-0.025739169842228,51.48257298164921],[-0.025819069906615,51.482188471401194],[-0.025882906427621,51.48204390640265],[-0.025952079968688,51.48194348276682],[-0.026065109498993,51.48182842432231],[-0.026368351971339,51.48157632193039],[-0.026408639181139,51.48150957422089],[-0.024719785636035,51.48119695766301],[-0.023161284865128,51.48073727848448],[-0.023120719544901,51.48024195834114],[-0.023070886699309,51.47962871134256],[-0.022523505500929,51.47969958272281],[-0.020367363248107,51.47993568905734],[-0.020418001350735,51.48023061084846],[-0.020014588961846,51.48036584309218],[-0.018934628157756,51.48072707405075],[-0.018727689529344,51.480783811251314],[-0.018583780557439,51.4808164409012],[-0.018400828741999,51.480848500438896],[-0.01816134544761,51.480858836997655],[-0.017875316056724,51.48088007337406],[-0.017644543419005,51.480719653898916],[-0.01711651893744,51.48040946635861],[-0.017067416115566,51.48038076655958],[-0.016859746959725,51.48028735303895],[-0.016860058730063,51.480280166212665],[-0.016910345492529,51.48018302438382],[-0.016961769057301,51.48012536840643],[-0.01702735296775,51.48007523389317],[-0.017105597537964,51.48003160654459],[-0.017231460409103,51.47998518835927],[-0.017463640920659,51.479943264812526],[-0.017644419998729,51.4799256441169],[-0.017768568116756,51.47991875291222],[-0.01795165126255,51.47991645390652],[-0.01829241408861,51.479895243459836],[-0.018376647248674,51.479877787844096],[-0.018443912721677,51.4798545614356],[-0.0185176113953,51.47981714941237],[-0.018572640167321,51.47977762381387],[-0.018633030657185,51.47971301645163],[-0.018897894102099,51.479516922358144],[-0.018964018161783,51.47945151269239],[-0.018997723368909,51.47940533352816],[-0.019029281480076,51.47934293585698],[-0.019061613981242,51.479194156177506],[-0.019131328623379,51.47894720659097],[-0.019128331249718,51.478783445802],[-0.019139318019759,51.47859564793049],[-0.019118628626077,51.47847572974199],[-0.019133907363308,51.47832315576006],[-0.0191665890194,51.47816629082206],[-0.019201763336406,51.47795462822343],[-0.01916585278901,51.47778590620762],[-0.019095669005816,51.47757785769245],[-0.019082338830229,51.477518297650334],[-0.019067423039334,51.47739667895007],[-0.019097637535588,51.47733237062349],[-0.01911834479839,51.477251809340714],[-0.019165097718459,51.47720315352522],[-0.019261770526526,51.47716702819576],[-0.019411831539903,51.477126410578975],[-0.019561230756714,51.477101064806114],[-0.019710009155868,51.477092789596156],[-0.019895067195205,51.47704188440237],[-0.020045633007997,51.47698958734182],[-0.02021252532597,51.47692767663596],[-0.02033675822521,51.476885722704736],[-0.020453457534982,51.476817570087846],[-0.020578370267348,51.47672699080656],[-0.020670290510978,51.47663055025493],[-0.020760438564151,51.47654486786558],[-0.020775082298635,51.47650555851624],[-0.020791622313462,51.47645810016202],[-0.020790392986179,51.47645358434769],[-0.020768453639372,51.47635971669468],[-0.020756655381644,51.476234554790274],[-0.020753082115056,51.47621561520691],[-0.020727305316138,51.4761144007597],[-0.020700632930491,51.475929652919106],[-0.020652442238719,51.475847029230835],[-0.020707481389614,51.47577145241754],[-0.020746131493704,51.475679506587575],[-0.020846477009758,51.47558860220174],[-0.020943844998202,51.47553630501324],[-0.02107541054238,51.475522343478744],[-0.021390045347693,51.47550598739157],[-0.02159920866254,51.47549872883902],[-0.021799749692737,51.475490425424084],[-0.022026349616117,51.47547806622838],[-0.02215873282882,51.47544793505061],[-0.022318185055747,51.47539039093704],[-0.022527928450559,51.47536695829183],[-0.022763188677893,51.47535474374057],[-0.022767617386295,51.47535391941397],[-0.022887143074223,51.475319075525974],[-0.022924504408138,51.4752540776396],[-0.022918529667492,51.475194552170386],[-0.022930542795901,51.47508147918143],[-0.022830534350723,51.47473088600275],[-0.022801711905403,51.47453252730275],[-0.022803121885488,51.474464226130166],[-0.022810972710982,51.474282668094716],[-0.02264597414697,51.47427089535495],[-0.022611593627293,51.47409950312818],[-0.022617793468502,51.47408792052787],[-0.022672683709004,51.4739854598166],[-0.022506458617972,51.47396638418549],[-0.022449363390777,51.47408687778339],[-0.022341479369053,51.47408595707894],[-0.022188454106466,51.47406090046259],[-0.022101514336577,51.47403965555498],[-0.022032012868431,51.47401600773773],[-0.021885052776631,51.47395230559772],[-0.021870772874915,51.47394756960688],[-0.021772396998597,51.47402601181448],[-0.021577643407086,51.47393363347817],[-0.021644986763508,51.47387543499428],[-0.021463108575805,51.473817526102316],[-0.021234554144414,51.47374354594744],[-0.021141078170333,51.47370600777541],[-0.021052264202685,51.47366225512733],[-0.020934445257987,51.47358915450106],[-0.020836597175717,51.47352097584332],[-0.020796587697412,51.47348254190624],[-0.020767928818391,51.473445198581445],[-0.020750661377724,51.47341074459279],[-0.020736180613834,51.47334756923177],[-0.020665615663673,51.47321413315876],[-0.020647570642955,51.473197646284206],[-0.020620866959287,51.473183710264976],[-0.020553787129616,51.47316999158121],[-0.020327548383387,51.47317426284691],[-0.020225826074408,51.47315995902691],[-0.020118037669895,51.473123976368356],[-0.02005058273974,51.473083280669755],[-0.020004504326326,51.47301777357261],[-0.019990012971309,51.47298777151125],[-0.019978378760708,51.47292194707874],[-0.01998311083231,51.47284830792329],[-0.020006039217191,51.472782168170916],[-0.02004162871144,51.47272523236137],[-0.020082685176201,51.472676390079926],[-0.020155956495212,51.4726128984691],[-0.020337169357358,51.472417276521355],[-0.020327645064108,51.47237126603435],[-0.020299708544189,51.47228709619662],[-0.020245022434293,51.47218458429979],[-0.020145147876853,51.472097491530064],[-0.020109979021128,51.47207891737117],[-0.020051989271321,51.47205546274705],[-0.019999270122088,51.47204189634786],[-0.019893279536319,51.472027520137445],[-0.019398543675182,51.47204712281561],[-0.019345373879761,51.47201107317661],[-0.019319177133034,51.471985458243054],[-0.019285253890544,51.471938136452145],[-0.01915296666645,51.47146742564764],[-0.019109977152304,51.47122926988191],[-0.019023232470831,51.47113790288897],[-0.01888423137617,51.47118949497484],[-0.018827583097464,51.47110223244411],[-0.018958533977265,51.47106929378178],[-0.018981821289467,51.47106339417353],[-0.018945154265938,51.470879375864804],[-0.018792467358176,51.47074814694719],[-0.018671669246949,51.47064541605603],[-0.018937476770844,51.4705249449206],[-0.019031690211702,51.470611044109226],[-0.019090316467835,51.4705868622979],[-0.019199945015498,51.47055005695583],[-0.019272630402463,51.47050004119318],[-0.019166838531493,51.47025093522977],[-0.01902091428432,51.47006228397854],[-0.019018183887437,51.4700595408031],[-0.01911795266563,51.46994884983173],[-0.018700574059537,51.469712458724636],[-0.018473366170696,51.46960523223281],[-0.018200427588953,51.469526000718574],[-0.017887181788317,51.46947836171067],[-0.017743907510845,51.46946155514039],[-0.017509005492202,51.46943330988025],[-0.017273870088227,51.46941045428352],[-0.017161563597801,51.46934202790721],[-0.01716164149804,51.469340231196945],[-0.017140419222755,51.46929851763036],[-0.017113892319697,51.46924772420278],[-0.016949353319728,51.46905605839381],[-0.016558940810631,51.46922754876942],[-0.016467328452007,51.46904880319084],[-0.016416324386547,51.46899579744662],[-0.016269654657411,51.46886026175654],[-0.015904448925508,51.46854922608335],[-0.015806661911053,51.468480055178006],[-0.015559709101951,51.468330235095685],[-0.015456186150553,51.46826195571557],[-0.015301236738316,51.46815046209619],[-0.015090133747074,51.4680363094409],[-0.015026711494981,51.46803973072204],[-0.014652526523384,51.46823396486921],[-0.014493811634043,51.4683076932638],[-0.014107983131013,51.46847197112521],[-0.013476075516447,51.46876702042818],[-0.01312895030569,51.468936535864266]]]]},"properties":{"url":"http://elections.democracyclub.org.uk/api/organisations/local-authority/LEW/1965-04-01/geo/","official_identifier":"LEW","organisation_type":"local-authority","organisation_subtype":"LBO","official_name":"London Borough of Lewisham","common_name":"London Borough of Lewisham","slug":"lewisham","territory_code":"ENG","election_name":"London Borough of Lewisham","start_date":"1965-04-01","end_date":null,"created":"1965-04-01T00:00:00Z","modified":"2021-10-11T14:59:26.370579Z"}}