{"type":"Feature","geometry":{"type":"MultiPolygon","coordinates":[[[[-0.030034586646523,51.49408746390637],[-0.030015975447674,51.49398466422551],[-0.029947662480223,51.49356349956622],[-0.030435099666987,51.49345122039156],[-0.031061004394317,51.493336769210735],[-0.031937973642802,51.4931760942583],[-0.032064477500959,51.49311528671922],[-0.03241281277952,51.49305550438955],[-0.032581165532229,51.493026863790675],[-0.032550287213471,51.49300746653153],[-0.032910872784298,51.49293071719754],[-0.033247769909008,51.492868942506604],[-0.033304001437893,51.49300024188042],[-0.033327220899779,51.492996136262846],[-0.035238736315443,51.492633424887856],[-0.037315023649627,51.49221949998393],[-0.037376863907626,51.49222323204408],[-0.037475975685454,51.49223028488333],[-0.037500387184587,51.492231592443055],[-0.037530457210363,51.492233893705325],[-0.037560645929108,51.49223619694623],[-0.037590834651108,51.4922385001794],[-0.037620866106695,51.49224169978124],[-0.037650977677129,51.49224579972434],[-0.037653787652265,51.49224674575649],[-0.037693872125262,51.49225370960556],[-0.037732493755342,51.49226154797001],[-0.037770919555141,51.492271181061234],[-0.037809306795167,51.49228171250279],[-0.037846388464254,51.49229222208558],[-0.037883274311039,51.49230452639642],[-0.037917350192822,51.49231588466995],[-0.037954354768261,51.49232819094475],[-0.037989739247783,51.492342268117184],[-0.038023699468316,51.4923563214489],[-0.038057621138386,51.49237127313383],[-0.038091542830793,51.492386224809145],[-0.038124001692846,51.492402051008725],[-0.038234964725771,51.49246782691397],[-0.038386746882478,51.492556670856914],[-0.038410348725378,51.4925768438529],[-0.03844384648034,51.492601677422115],[-0.038478768561381,51.49262653480686],[-0.038513809371222,51.492651394166884],[-0.038551618673149,51.492675400816246],[-0.038589623828823,51.492697612712824],[-0.038627471769634,51.49272072097525],[-0.038666939853562,51.49274205830729],[-0.038707752136763,51.49276251910013],[-0.038717648092044,51.492767179655374],[-0.038751489323371,51.49278401770689],[-0.038788301717741,51.4928008155399],[-0.038823609709041,51.49281668919261],[-0.038860342021533,51.49283258665519],[-0.038898655903852,51.49284761154804],[-0.038935465377534,51.492861712260996],[-0.038973856417787,51.49287494040315],[-0.039013553087359,51.49288819036649],[-0.039051982725657,51.49290052012014],[-0.039093180843684,51.492911997148234],[-0.039133111925906,51.49292255396641],[-0.039174505877135,51.492932236224284],[-0.039191600517643,51.49293521909567],[-0.039223021347414,51.492942037547394],[-0.039255866487246,51.49294887980627],[-0.039287325884564,51.49295479987748],[-0.039320209591146,51.49296074375506],[-0.03935313185338,51.492965789260026],[-0.039386054123123,51.49297083475579],[-0.039420439247391,51.49297500569243],[-0.03945343862152,51.492978254442384],[-0.03948643800059,51.49298150318309],[-0.039519475928222,51.492983853550996],[-0.039553976704344,51.49298532935793],[-0.039587053181025,51.492986781343255],[-0.03962016820171,51.49298733495566],[-0.039654784607418,51.49298611564208],[-0.039687976709584,51.49298487250803],[-0.039703801263192,51.492984238040336],[-0.039737031902379,51.492982096528685],[-0.039771763917905,51.492978182089416],[-0.039803647324275,51.49297422002212],[-0.03983695502698,51.492970281754545],[-0.03987033979759,51.49296454674993],[-0.03990230025872,51.49295878792805],[-0.039934299247431,51.49295213073358],[-0.039966179535281,51.49294547154636],[-0.040370223533526,51.49282995928251],[-0.040553013332604,51.49279966061082],[-0.040563333239688,51.492794439006595],[-0.040555053997671,51.49278531058399],[-0.040070413054396,51.49216300909761],[-0.041055645439775,51.49182787012376],[-0.040343758321688,51.491062426868574],[-0.042508065029556,51.49024065308988],[-0.042225869562505,51.490035463144544],[-0.042357201732829,51.49002776668916],[-0.0427407386884,51.49002149310717],[-0.044498797946101,51.49010665292324],[-0.044552704337758,51.49012643104208],[-0.044576499912119,51.490142110986554],[-0.044737036060569,51.49036234781208],[-0.044758098942914,51.49044190159856],[-0.045135469299871,51.490377171740626],[-0.045115793893394,51.49033180344688],[-0.045521724957428,51.490235184215685],[-0.045831749482759,51.49016213754818],[-0.045927282903486,51.490219468051755],[-0.046164361613254,51.490366360751885],[-0.046567337441893,51.490341609268754],[-0.046566038057209,51.49047203360667],[-0.04656745393536,51.49074454634958],[-0.047595699840667,51.49044602963422],[-0.047550029241997,51.49036966269185],[-0.049220057926964,51.489985622226996],[-0.049260881585775,51.4900420398165],[-0.049358331041948,51.49002118574913],[-0.049713008348448,51.48994527561965],[-0.049657434354981,51.48986433966247],[-0.050345235914667,51.48974712956713],[-0.050817408668662,51.489617431170664],[-0.051151639869904,51.48955016691701],[-0.051466150426397,51.48943843277302],[-0.051958647950383,51.48913546929869],[-0.050169563390916,51.488361175881515],[-0.050108685352666,51.48833499136195],[-0.050344123006148,51.48811676146965],[-0.050308891156069,51.48809909453036],[-0.05038449392707,51.4880167438825],[-0.050464292358392,51.48793347403491],[-0.050544834811841,51.48790514585168],[-0.050644159369642,51.48787083680346],[-0.050738040170826,51.487933529967634],[-0.050770034121501,51.48792686975658],[-0.051115677748601,51.48782563309747],[-0.051308409750207,51.48779826995605],[-0.051750294540285,51.48780741066984],[-0.052119834911018,51.48782254002985],[-0.052174967238461,51.487813566781554],[-0.052412857955976,51.487774365862585],[-0.052500469844182,51.48771109248333],[-0.052622141872596,51.48756199011195],[-0.052631107799812,51.487552249934566],[-0.052889858757823,51.48763386144056],[-0.053977484477248,51.48793519370187],[-0.053728769384564,51.48751743268564],[-0.053564581021386,51.48728177464061],[-0.053515396984066,51.48721802770632],[-0.053406171952328,51.487077767437725],[-0.053321921385733,51.48702593447684],[-0.053254573132846,51.48698436104916],[-0.053186115267206,51.486968840366515],[-0.053156082194633,51.48696294768831],[-0.053030466815124,51.486867365282485],[-0.052994193436466,51.48684069178213],[-0.052933877489816,51.48673441651299],[-0.052901677210632,51.48667904238487],[-0.05288052129622,51.48660137646276],[-0.052844296854936,51.486470418884714],[-0.05285672695336,51.48644904912072],[-0.052893944461224,51.486386646726004],[-0.052920385605314,51.48634303443073],[-0.052940502130565,51.4862750439135],[-0.052946429785326,51.48610244304249],[-0.052949177139222,51.48600449686611],[-0.053079646140961,51.48598328902817],[-0.053181204456307,51.48596609608372],[-0.053140133341534,51.48584854322714],[-0.053560077878887,51.485795191547375],[-0.053551881896283,51.48551636323807],[-0.053423043170914,51.48529297876282],[-0.053314766300977,51.48523094772047],[-0.053249392629386,51.48521278123606],[-0.05319584077913,51.485218185184046],[-0.053169073452207,51.48516910446581],[-0.053097349254644,51.48516341856042],[-0.053040943911828,51.484831557369944],[-0.053001154986235,51.48461423589495],[-0.052999960536942,51.48460882201659],[-0.052964375267701,51.48439597545657],[-0.053013611902565,51.48438870195212],[-0.053118018648109,51.4843742533991],[-0.052984735774312,51.48358064396367],[-0.052982304791209,51.483568017490455],[-0.05289017990851,51.48356738673332],[-0.052832625777267,51.48356643099077],[-0.052800917211424,51.48346611457604],[-0.052922299163113,51.4834573421514],[-0.052921437155336,51.48340788241587],[-0.052978600256116,51.4833845584161],[-0.052949500477799,51.48291910842912],[-0.05295589902028,51.48280234367292],[-0.05295961894617,51.482748464978336],[-0.052857485625084,51.48274586997683],[-0.052818720052938,51.482744327216864],[-0.052813195422064,51.482670516834645],[-0.052811461044166,51.48264432690621],[-0.052942617414765,51.48264021183029],[-0.05297439308431,51.48240160340411],[-0.053017560616476,51.48196522259711],[-0.053052727187567,51.48174734761718],[-0.053118828361378,51.481447187637336],[-0.0532506958956,51.481055431829006],[-0.053260429410333,51.481030421211486],[-0.053168152711176,51.481030687129035],[-0.053156604262149,51.48103139438942],[-0.053187734583947,51.48097797078912],[-0.053218941347198,51.48092275043381],[-0.053268616400928,51.48083816943502],[-0.053306058109427,51.48077037656183],[-0.053427828060656,51.480515281908],[-0.05348937378138,51.48048933340655],[-0.053514276835061,51.480478958724355],[-0.053506901774796,51.48038165352689],[-0.053388294805607,51.480361704324224],[-0.053356803849715,51.480356686469726],[-0.053358869582379,51.48030817433151],[-0.053413227514275,51.480317167850856],[-0.053573411442328,51.48034230226795],[-0.053573508857607,51.480273080268134],[-0.053573270689453,51.48024520706587],[-0.053520298474848,51.48023713563242],[-0.0534701951752,51.480161686199445],[-0.053478066401919,51.48007722021386],[-0.053521767991391,51.47996556969665],[-0.053621309688027,51.47979182565528],[-0.053654071199351,51.47980046056447],[-0.053695418308471,51.479811035996306],[-0.053707999102873,51.479786072602984],[-0.053999797377073,51.47925771418978],[-0.054018417547061,51.47922475992442],[-0.053953017694411,51.47920740243837],[-0.053947279980117,51.479205509191715],[-0.054328549853766,51.47860581525117],[-0.0542675331044,51.478583136619065],[-0.052699235016703,51.47800861574401],[-0.052747476078265,51.47630166030157],[-0.052763037696405,51.4738397133783],[-0.052756998598886,51.47293323215039],[-0.052173718564886,51.471210391272784],[-0.051980528414905,51.47060916043499],[-0.051801479445106,51.47008017484678],[-0.05168702283898,51.46975723653431],[-0.051686552393012,51.46970140021522],[-0.05178239982563,51.4696139909988],[-0.052151263546331,51.46933774091909],[-0.052281776075578,51.46921404782237],[-0.052040912106854,51.468954637470084],[-0.051684372119516,51.46857103900752],[-0.05144640757763,51.46834403990604],[-0.050994501009693,51.46773041575539],[-0.050881360665159,51.46758019818915],[-0.051128255336278,51.46746374531529],[-0.05132654238753,51.46737084718865],[-0.051319654475954,51.46736533864231],[-0.051000221508941,51.46712260023772],[-0.050575137733554,51.46679359728529],[-0.050633972519466,51.46676400921416],[-0.050822293035229,51.46667094622657],[-0.050888398096793,51.46663788286127],[-0.050519948261582,51.466601190414615],[-0.050278576291148,51.46655753021672],[-0.049904998262447,51.466471304976665],[-0.049670083852905,51.466409860621994],[-0.049623132434441,51.46639739241538],[-0.049406727726438,51.46633895248372],[-0.049055742740192,51.46622963623533],[-0.048629169379813,51.466072402172486],[-0.048206059503487,51.46589805309265],[-0.048540161292786,51.46562671951444],[-0.047720770404836,51.46522542421297],[-0.04756167802228,51.46517602628268],[-0.047483244079399,51.46512527444589],[-0.047330531973918,51.465026536860506],[-0.047037514505651,51.46490829080936],[-0.046773004241036,51.46473127414017],[-0.046586778276577,51.464608513012365],[-0.046363595788288,51.46440611267102],[-0.046213770285111,51.464239905960234],[-0.045999093655112,51.46397462596409],[-0.045720325977357,51.46352308087914],[-0.045457295951442,51.46294224991034],[-0.045346284956641,51.46260677595846],[-0.045236811577316,51.46220480066335],[-0.045188483906094,51.46181912801146],[-0.045129030812791,51.46132439949095],[-0.045105640756122,51.460930152458786],[-0.045114113658219,51.460595771495896],[-0.045123283717519,51.46028118040006],[-0.045177038216088,51.45983149204988],[-0.045242640870362,51.459407263444284],[-0.045303444293967,51.4590953312486],[-0.045335754878088,51.45898079646149],[-0.045615516029733,51.458158100059336],[-0.045717417132399,51.45789809644512],[-0.045742763120848,51.45781041579383],[-0.045779878801388,51.45768058787038],[-0.045781302009492,51.45768061159515],[-0.046001597830423,51.45717445397408],[-0.046103167418049,51.45712220617913],[-0.046160404696563,51.45696304610275],[-0.044995724812685,51.456661249096896],[-0.044632360136237,51.45657697471327],[-0.043452255565049,51.45593139225443],[-0.04274553628323,51.45549247402798],[-0.042100316025648,51.45516425814576],[-0.041962082938929,51.455099827550676],[-0.041825074035708,51.455037305165334],[-0.041648593385881,51.454990305457436],[-0.042445619987904,51.45388938097667],[-0.042989324452324,51.45319165502397],[-0.043189684557416,51.45311858363649],[-0.043662745816046,51.45265710467987],[-0.043886136488834,51.452414413112166],[-0.04450793879336,51.45170710532345],[-0.044873993844682,51.45132474762687],[-0.045000558511839,51.45129269597715],[-0.045124197146081,51.451229129941325],[-0.045196430858192,51.45105493708246],[-0.045178878018692,51.45096024800665],[-0.045483146750139,51.45064338503144],[-0.045875181867815,51.45019133440373],[-0.046150782447411,51.449873092798036],[-0.046511438816944,51.449919559184714],[-0.046941496906553,51.44996088769238],[-0.047757950238618,51.45005180292849],[-0.048239788843183,51.45009219097411],[-0.048721704959128,51.45013078029728],[-0.049086665112823,51.4501125814536],[-0.049366360090202,51.45003182980448],[-0.049935444643781,51.449848819588986],[-0.050954580330909,51.449507872117636],[-0.053069936442934,51.44883712025216],[-0.053464526865427,51.44876366119634],[-0.053579618590688,51.448730420916355],[-0.053644935282589,51.44871802026738],[-0.053787805912786,51.44870960425509],[-0.053908369496972,51.44871789896867],[-0.053953919379818,51.44872944331456],[-0.054007586889886,51.44875379847576],[-0.054081349826436,51.44881345877972],[-0.054331297654503,51.44899381410346],[-0.05474878210402,51.44919412031554],[-0.055435470293747,51.44949328729787],[-0.056543463414779,51.449939681643706],[-0.057561284308614,51.45033872160755],[-0.057589473405885,51.450317612427675],[-0.058100675337292,51.449940316099116],[-0.058618865066714,51.44956313329696],[-0.058687433795359,51.449507631139994],[-0.059061508850621,51.44930786198148],[-0.059677657141016,51.44899882333531],[-0.060972612544589,51.44842762249956],[-0.061383557215004,51.44813855473147],[-0.061826897693184,51.44779608049658],[-0.062079743161563,51.44753586156232],[-0.06221994682414,51.44735208396708],[-0.062343199237002,51.44719310842483],[-0.062569005885508,51.44695761381686],[-0.062901421982759,51.446448783048425],[-0.063083855407903,51.446183802328136],[-0.063244635938015,51.445852835725276],[-0.063365083133736,51.44555806201773],[-0.063484143900673,51.44526236626639],[-0.063640012138788,51.44480896247032],[-0.06371330112654,51.444537772581036],[-0.063743840361996,51.444225331062725],[-0.063749729854243,51.44415341750665],[-0.063665552081015,51.44335532273174],[-0.063733619639969,51.442868103869515],[-0.063870415238066,51.44252595199373],[-0.064082742384848,51.442097843273956],[-0.064165760617323,51.44197236376135],[-0.064218727802886,51.441909408653906],[-0.064277466340616,51.441847447843756],[-0.064611660784473,51.44153372713955],[-0.065026203019786,51.44115750203609],[-0.064671232651077,51.441008608891394],[-0.064280017553484,51.440903257601256],[-0.064053564226914,51.44084917299937],[-0.063800932856952,51.439540173794136],[-0.063752272791022,51.43899079261543],[-0.063733493123767,51.43820897081707],[-0.063706842470466,51.437989171494955],[-0.063700695824692,51.43792973512344],[-0.063543625835557,51.43776702613852],[-0.063457363907196,51.4376271530283],[-0.06345674769721,51.43754074772866],[-0.06355071809593,51.437495551583],[-0.063982776897428,51.43728234079099],[-0.064158152638429,51.43721691242352],[-0.064244894809847,51.43717429338488],[-0.064364879860354,51.43709176769174],[-0.064420272965294,51.4370414387206],[-0.064467163822787,51.43698737327442],[-0.064530529350461,51.43688314524124],[-0.064560326880765,51.436792836994805],[-0.064611184140355,51.43667860313754],[-0.064800271440726,51.436288676846274],[-0.0650863545431,51.43591932066227],[-0.065415780165269,51.43541124229745],[-0.065606808496074,51.43507897345772],[-0.065788000378649,51.43470428838234],[-0.065834261548339,51.43463133273356],[-0.065909082129889,51.434530978936515],[-0.065973995750374,51.43445734210465],[-0.066042949926552,51.434391952923285],[-0.066144313330317,51.43430911817595],[-0.066708786856099,51.43392277464876],[-0.067151512866545,51.43369174803669],[-0.067753280711836,51.433444462504376],[-0.068602148395909,51.43299986712528],[-0.069021565246711,51.43284576451368],[-0.069529147822311,51.43268241432989],[-0.069622272900473,51.43265688782939],[-0.069984156242169,51.43257024908619],[-0.070187212046702,51.43253133896373],[-0.070392923132748,51.432496967268236],[-0.070695269536501,51.43245789283788],[-0.070943143471389,51.432447588522336],[-0.071109887338246,51.4324512317629],[-0.071334900980385,51.43247111682781],[-0.071607788747143,51.432483698019475],[-0.072076901121979,51.43248152614478],[-0.072215937438393,51.4324586406929],[-0.072383376728894,51.43241194886685],[-0.07246088555196,51.43238256724337],[-0.072540034714375,51.43234521133442],[-0.072630058509836,51.43229185197439],[-0.072708697465007,51.432235608303984],[-0.072764037676737,51.432186173582494],[-0.072861682527331,51.43208699982905],[-0.073586058206131,51.431351648842316],[-0.07489355830536,51.4297490659357],[-0.074927748580074,51.42965523120524],[-0.074970262634747,51.42953267487906],[-0.075048438554683,51.42917965804423],[-0.07509328677776,51.42879552736717],[-0.075028505521991,51.42855613518892],[-0.074944193649974,51.42837225085884],[-0.074795687070835,51.42810720997974],[-0.074490718483529,51.42762824062282],[-0.074327090227746,51.427449345786975],[-0.074166162203594,51.42706803738526],[-0.073984810393247,51.426523761654394],[-0.073930440917242,51.42620902273925],[-0.0739356275886,51.4261533691689],[-0.073954386494393,51.426150081394304],[-0.074002253400419,51.42614277689201],[-0.074048621070899,51.42613445881934],[-0.074094984947626,51.42612623056736],[-0.074141424353512,51.42611620551223],[-0.074187939283018,51.42610438365376],[-0.074238952773808,51.42608993865461],[-0.074289885481765,51.42607459329313],[-0.074341012214234,51.42605745307157],[-0.074389175889895,51.42604026414522],[-0.074437415063266,51.4260212784137],[-0.07448569196274,51.42600139426931],[-0.074532546573195,51.42598148673892],[-0.074554532733952,51.42597195879745],[-0.074582477448868,51.42595893268873],[-0.074611725873792,51.42594592799075],[-0.074639670556721,51.425932901868],[-0.074667496703368,51.4259198737914],[-0.074694056871047,51.42590592589868],[-0.07472192074697,51.4258919994161],[-0.074746977877771,51.42587712780808],[-0.07477357575653,51.42586228150406],[-0.074797210610881,51.42584738652223],[-0.07482088698473,51.4258315033034],[-0.074844597324777,51.42581481152614],[-0.074866885405523,51.42579809638236],[-0.074886248224498,51.42578043417207],[-0.074893742254223,51.42577426417559],[-0.07491326132976,51.42575570551455],[-0.074932661869348,51.42573714490333],[-0.074949336433899,51.42571853951444],[-0.074965930220799,51.42569903378346],[-0.074981101755007,51.42567950468984],[-0.074996391795922,51.42565997754074],[-0.075008756584485,51.425639503330494],[-0.075021121361781,51.42561902911877],[-0.07503348612781,51.425598554905555],[-0.075043006411978,51.425578033972286],[-0.075454990338799,51.42498048330821],[-0.075456450301257,51.42497960826912],[-0.075664803207745,51.42467817412042],[-0.076598769915882,51.42319530017217],[-0.077603182972568,51.421710877314446],[-0.077898979430274,51.421240960023894],[-0.078042347113897,51.42101217494351],[-0.078238830011484,51.4207186327],[-0.078306629480071,51.420609165805544],[-0.079160949935351,51.42081825695818],[-0.079197526496529,51.4208368366984],[-0.079222833837896,51.42084983765427],[-0.079255432537426,51.42089541247649],[-0.079269099520494,51.42091451573932],[-0.079261663841427,51.420987213938346],[-0.079149844127623,51.421184962187276],[-0.078947879903138,51.421541436884105],[-0.078930874951631,51.421570825576545],[-0.079465110917482,51.4216928570227],[-0.079515911521932,51.42175122631689],[-0.079629743574589,51.42188174034198],[-0.079828827103952,51.42210885650276],[-0.079856307336172,51.42214077218491],[-0.080077329742358,51.42204819876717],[-0.080343316948521,51.421980634795965],[-0.080420347480863,51.42196211821527],[-0.08085181438231,51.421859504819125],[-0.080896867302997,51.421848465495394],[-0.081055762307035,51.42214333631768],[-0.081158545699569,51.42233390176308],[-0.081694490686374,51.42330758551653],[-0.0817264953859,51.42336744418499],[-0.081779407378563,51.42337550231385],[-0.082031729603473,51.423325691083],[-0.082843720008274,51.42313660878181],[-0.083438915354925,51.42300699660085],[-0.083476622975417,51.42299862310405],[-0.083495254726707,51.42310321321144],[-0.083511120584538,51.42341282278797],[-0.083536910363067,51.42368933117089],[-0.083585476476439,51.42414430627929],[-0.083618409117527,51.4245279138469],[-0.083631629775266,51.42472501366928],[-0.083683113320059,51.4250082351584],[-0.08386276510758,51.425391634317215],[-0.084078786198234,51.425727890169696],[-0.084372361700881,51.42613823316716],[-0.084652196382298,51.42653126959534],[-0.084955214238666,51.426957138426964],[-0.085172724849522,51.427260962111106],[-0.085250753330615,51.427354924975056],[-0.085261724459146,51.42736769037073],[-0.085438098930446,51.427483847091054],[-0.085794753054283,51.427659675674875],[-0.085904211251536,51.42768843366631],[-0.085991503093297,51.42773391078373],[-0.086040074626801,51.42777785652116],[-0.086073998354238,51.42782605809878],[-0.086092345855558,51.427869510255],[-0.08610053981008,51.42791468452858],[-0.08609866277801,51.427959604444986],[-0.086066444567905,51.42804088836176],[-0.085945278897929,51.42818724654861],[-0.08588736332434,51.42829876703834],[-0.08585630546737,51.42842322239012],[-0.085868657392193,51.42847107171605],[-0.085890412793661,51.428501094385894],[-0.085916854119486,51.42852400148749],[-0.085997101293374,51.42856495838276],[-0.086045409274126,51.42857833342009],[-0.086121284996942,51.428587663547646],[-0.086613380810588,51.42872425672086],[-0.087257714261688,51.42886513038687],[-0.087680710193886,51.429000681231145],[-0.087873842721863,51.429096430351144],[-0.088114941300922,51.42924789115908],[-0.088226090341944,51.42934140331009],[-0.088319602921704,51.42944541582461],[-0.088497145440665,51.42970731651708],[-0.088890979216046,51.43054199744023],[-0.089308743609494,51.4318041868396],[-0.089593015833875,51.43278361753823],[-0.090023242026671,51.43436794232919],[-0.090225371885048,51.43514456426283],[-0.090464735059123,51.436098088109176],[-0.090577852440253,51.43645782663691],[-0.090665344112575,51.43666971002234],[-0.090981291801844,51.437408627803514],[-0.091194612664096,51.43784920028433],[-0.091488963070077,51.43831257801548],[-0.091726301724932,51.43862399324398],[-0.091837932124086,51.43874367065979],[-0.091898014219221,51.43881926649548],[-0.091989457376672,51.438973586591],[-0.092040064274028,51.43910575558777],[-0.092258348759925,51.43959845932807],[-0.092540435717153,51.44032252695816],[-0.092767910441465,51.44083695535422],[-0.092874496427594,51.44107791579995],[-0.093002701110219,51.441420815831584],[-0.093206650740122,51.441773937956036],[-0.093356989633467,51.44196436613659],[-0.093634071468692,51.44225664539804],[-0.093798950785823,51.44244272450972],[-0.094004560373304,51.44269068813785],[-0.094105673156433,51.442818283281156],[-0.094507349103547,51.443401167776926],[-0.094953119395546,51.444344550448115],[-0.095016217976738,51.44452187137925],[-0.09503750495989,51.44463189629792],[-0.095043281748763,51.44470121379416],[-0.09501702884132,51.44488157766309],[-0.095013186749366,51.4450793868797],[-0.095024995660383,51.44520903593375],[-0.095040065940164,51.44529738361957],[-0.095096493967839,51.44546111095026],[-0.09514056455451,51.4455454348443],[-0.095251580660486,51.44571184715385],[-0.09569772771985,51.44626488341655],[-0.095903432598288,51.44650834991443],[-0.096108059523194,51.446746404475675],[-0.097429826825239,51.44776693164566],[-0.09795853488468,51.44813610332184],[-0.098451417748915,51.448430972827765],[-0.098892001867463,51.44873667914902],[-0.099253322920555,51.44908245289635],[-0.099304141152403,51.44914171232784],[-0.099344727039129,51.44920449176024],[-0.099403422480392,51.44934838551058],[-0.099416999480173,51.449404344061854],[-0.099427283017519,51.449536754696354],[-0.099564887166539,51.44986361694353],[-0.099645464917128,51.450000673243345],[-0.099723459398384,51.450099929323954],[-0.099808677491404,51.45019669532198],[-0.099858702051911,51.45023796149237],[-0.099923604398043,51.45026957971679],[-0.099993192875542,51.45029408180436],[-0.100068727906699,51.45030969016182],[-0.100147525985681,51.45031815930042],[-0.100205158486058,51.45031909332037],[-0.100322206015158,51.450306606055435],[-0.100760927956721,51.45031191681288],[-0.100766297524629,51.45035695413638],[-0.100792507076475,51.450660433872336],[-0.100789167609158,51.451018274256775],[-0.100802258340237,51.45108600172688],[-0.100830938573067,51.45115838688934],[-0.100877789796316,51.45124185449886],[-0.100957926802795,51.451358225541966],[-0.101132012365845,51.451567007901666],[-0.101322661387741,51.451759876144294],[-0.101340236234731,51.45178533297068],[-0.10138045818192,51.451857005909915],[-0.101425372983423,51.451955725025805],[-0.101457164805767,51.4520561195049],[-0.101474536527051,51.45215798854997],[-0.101478863363617,51.452259646327924],[-0.101468806506432,51.4523647570839],[-0.10138741560381,51.4525216640087],[-0.101335164045839,51.45260262730286],[-0.10110609661468,51.45292085115732],[-0.101060620378004,51.45301010503361],[-0.101038751162151,51.4530852672995],[-0.101034768485403,51.45321555867738],[-0.101162698160878,51.45377609349499],[-0.101118573442404,51.453867077389276],[-0.101005784040557,51.45405413154605],[-0.100938352952772,51.45415192988049],[-0.100627566908719,51.454391514444396],[-0.100044871674453,51.45476873462488],[-0.099117449581097,51.45540206341406],[-0.098591258831528,51.45569838309804],[-0.097848846451053,51.456037041631006],[-0.097602174490696,51.45615539370754],[-0.097207084205635,51.45641517736479],[-0.096575959447895,51.456879697029876],[-0.096201470849782,51.45716318599268],[-0.095837124783258,51.457408181249775],[-0.095664828726709,51.45760415285433],[-0.095503639007727,51.457881125288694],[-0.09520806634974,51.45837545143861],[-0.095148524589829,51.458457192561134],[-0.095122595546459,51.458492731498836],[-0.095025355705865,51.45865036543347],[-0.094866848071786,51.45886274203702],[-0.09472958300787,51.45901244333455],[-0.094571969226408,51.4591690956931],[-0.094142550723045,51.45959372832491],[-0.093650310499076,51.46000475179543],[-0.093094126448687,51.460431904172324],[-0.092938266239439,51.4605804019289],[-0.092840043813138,51.460658815652096],[-0.092758410420091,51.46071511392155],[-0.092551800902101,51.46083671437121],[-0.092327687567848,51.46103363605046],[-0.09221177099179,51.46112075139259],[-0.091539072514592,51.46199289629663],[-0.091124099195244,51.462553592963204],[-0.090939777189895,51.46283198054262],[-0.09066706060102,51.46329430330734],[-0.090105956262883,51.4657338760167],[-0.090071797827251,51.4660004141445],[-0.090071162135908,51.466086708331815],[-0.090079705229684,51.4661578689503],[-0.090094542609829,51.46621474801408],[-0.090136289246242,51.46631800461957],[-0.091146205422343,51.467613197173925],[-0.092265374357575,51.46908816118117],[-0.092717664337775,51.46977444825179],[-0.092740151210143,51.469821652208566],[-0.09278194813535,51.469923919672304],[-0.092849048333437,51.47014535724648],[-0.092928821101779,51.47075186481376],[-0.092946479597673,51.47094903406051],[-0.093024424950239,51.47201508286153],[-0.093031062640374,51.47202957489308],[-0.093080286549399,51.47212746797441],[-0.093486896787606,51.471905643424904],[-0.093623718831239,51.4717676234793],[-0.09366318785521,51.471717920973425],[-0.093726986887742,51.47160289680555],[-0.093999224906003,51.470876252287006],[-0.094065197796113,51.470780232267366],[-0.094105643571382,51.47074124364492],[-0.094200626837576,51.47067266526407],[-0.094323164842548,51.47060093866087],[-0.09445285814036,51.47052842921938],[-0.094797077654701,51.47035323339755],[-0.095069847755029,51.4702003397434],[-0.095997504680965,51.4698808885908],[-0.097135700987814,51.47069246843779],[-0.098917114894489,51.47193358366094],[-0.099177194753165,51.47218871235903],[-0.099247341461752,51.4722662648834],[-0.099375077926701,51.47262353197563],[-0.09954290005344,51.47305615584757],[-0.099775268578827,51.473424108387114],[-0.100368013150619,51.47399118542771],[-0.100573410454492,51.47421126274083],[-0.100619606298643,51.474276739339594],[-0.100654259093631,51.47434571484414],[-0.10068269723513,51.47445855092599],[-0.100591395105935,51.474784398973625],[-0.100337888278237,51.47627668271717],[-0.100169842863742,51.476646237140805],[-0.10011159710399,51.47673069865363],[-0.099997645048678,51.47687278255371],[-0.101511420515263,51.47752678451292],[-0.103621879793482,51.47834145092309],[-0.105554325006331,51.47914699966462],[-0.107202976857379,51.47984805612235],[-0.107854207990512,51.48011936726865],[-0.108015716575543,51.48018490353837],[-0.108068141306187,51.480206426469955],[-0.108219333910758,51.48027449300876],[-0.108245927336886,51.480294700095776],[-0.108237696373628,51.48035300240277],[-0.10821487273203,51.48038230122251],[-0.108178322735955,51.4803960955479],[-0.108085380694552,51.480415362900814],[-0.107940623304275,51.48043280518525],[-0.1055570924301,51.480713555268494],[-0.105006629757137,51.4807900655788],[-0.104085959736762,51.4809028410774],[-0.104046932740274,51.4809076040522],[-0.104621101148071,51.481439386505265],[-0.104640492221347,51.48145857898826],[-0.104623766768991,51.48158416888928],[-0.104898551773088,51.48183322868531],[-0.105155611533747,51.482094587398635],[-0.105280731941628,51.48209840725502],[-0.105326737947311,51.48210004964603],[-0.105421855776718,51.48220317373998],[-0.105634068328925,51.482435038682006],[-0.106043700702614,51.48269706218242],[-0.10590488081113,51.48278022500715],[-0.105635749804805,51.48295037353985],[-0.105663872354944,51.482965211896904],[-0.106328620857434,51.48329518465122],[-0.106823339225573,51.483521630442056],[-0.106978210752435,51.4835727667672],[-0.107222561524931,51.4836540254284],[-0.106926281361339,51.484061074987004],[-0.106743496759026,51.48433690417172],[-0.106615875764164,51.48453091570329],[-0.106550158622085,51.48469257376449],[-0.106357552884235,51.48489003066015],[-0.106550204115534,51.484969556755466],[-0.10784444468143,51.48550485671139],[-0.107991835250754,51.485564771027946],[-0.108136679403733,51.485648917096015],[-0.108281077901694,51.485743843801195],[-0.108452516123526,51.485848286416804],[-0.108121433010541,51.486154988377294],[-0.105519861245291,51.48876935378406],[-0.10532787356531,51.48895423296694],[-0.104711031101817,51.48955216907643],[-0.104188461480631,51.49003017112993],[-0.103803233805405,51.49046103667552],[-0.10339294819335,51.49087162777776],[-0.103260193515428,51.49105116861141],[-0.103258582779409,51.491055637561495],[-0.103159714753608,51.49117989844494],[-0.10329197239108,51.49125845277685],[-0.103395940781691,51.49132036740913],[-0.10315618152638,51.4914739044079],[-0.103527394531291,51.491693061458335],[-0.103405722429317,51.49178009471886],[-0.103582909901307,51.491883648378256],[-0.103712169598732,51.49199730464834],[-0.10373167649084,51.49201380209787],[-0.103883328777257,51.49196851738853],[-0.103943065053719,51.49195150326053],[-0.104105115371505,51.49224818635882],[-0.10424655659818,51.4924834040138],[-0.10425728733626,51.492502456496126],[-0.104400571292206,51.49273051173385],[-0.104519017411316,51.49293029630036],[-0.10469907584907,51.49307075362815],[-0.104793871894042,51.493319600664336],[-0.104886895929128,51.493508096061355],[-0.104896202791754,51.49352712546854],[-0.105337800416213,51.49361346298304],[-0.10574204378338,51.49369550953543],[-0.107158956370051,51.49416258453901],[-0.109399440441208,51.494955954264974],[-0.110507322935843,51.49537215675017],[-0.110584293232089,51.49539227588254],[-0.110664335361837,51.495407050458944],[-0.110813581460815,51.49542293985922],[-0.110957371525987,51.49549897412543],[-0.110972928681306,51.495576628555526],[-0.11144259404351,51.496447412043295],[-0.110295126871787,51.49677782888386],[-0.110303925209222,51.49684368749209],[-0.11029538357975,51.49687501482005],[-0.109516259192077,51.4983651343532],[-0.109520086677903,51.49837598404124],[-0.109470395534725,51.498497446846294],[-0.109121029777489,51.499106010341045],[-0.108353641743544,51.50034809775051],[-0.108227993713042,51.500493506774724],[-0.108188883039075,51.50053431971327],[-0.10784650162921,51.50079849574431],[-0.106825779575715,51.50157880530193],[-0.106703968120459,51.50166583972403],[-0.106527266998114,51.50158387502946],[-0.105986634728648,51.502010350356635],[-0.105947629241964,51.502045680363075],[-0.106115556005009,51.50213298811774],[-0.106086865221326,51.50216309074812],[-0.106064932120136,51.50220498948888],[-0.106050585376468,51.5022730817073],[-0.106080862066547,51.50241390436963],[-0.10613682141887,51.50252268790939],[-0.106751588005181,51.50222236953483],[-0.107458026620622,51.503012484399605],[-0.106395556352374,51.50337129532519],[-0.106518412242894,51.50364037142317],[-0.106519836932974,51.50364039442523],[-0.106599560990641,51.50404721980692],[-0.106566501024681,51.50425435471599],[-0.106545615880403,51.504305350340324],[-0.106467159970337,51.50449557031835],[-0.106434572478923,51.50468841873468],[-0.106434542790971,51.50482956100865],[-0.10646564399103,51.50498208379104],[-0.106592683440108,51.505290783189544],[-0.106596808698696,51.50529444578293],[-0.107363577998389,51.50706391416356],[-0.108175547713193,51.50690890202711],[-0.108244905750715,51.50700711257842],[-0.10829093923794,51.507114835845705],[-0.108406323479395,51.5074242440719],[-0.108424420887416,51.50747496973644],[-0.108506415514621,51.50775866736929],[-0.108593037237426,51.507752782474206],[-0.108799619418275,51.50770487098659],[-0.108862283726637,51.50807096442393],[-0.108921526319366,51.508416415583184],[-0.10892479644385,51.508440741247355],[-0.109140669919511,51.50963206725477],[-0.109178777216777,51.509825156969],[-0.109188398009811,51.50987116094093],[-0.108494586763013,51.509886044387635],[-0.107921809002682,51.509901977369886],[-0.107359682353102,51.50990459447205],[-0.106986271589441,51.50990935600188],[-0.106512273607964,51.50990709846457],[-0.105587865646744,51.50988677668387],[-0.105179147632964,51.50987478019163],[-0.104640206260784,51.50987416283607],[-0.104657182140879,51.50967126363813],[-0.104661612795985,51.50967043624128],[-0.10477228388647,51.509643456740456],[-0.104750292336259,51.509617929424735],[-0.10474338477541,51.50960972681935],[-0.104659903980463,51.50960568077272],[-0.104657249557587,51.50946350629568],[-0.104688862305382,51.50911691403593],[-0.104764270838479,51.509106445655135],[-0.104743145155792,51.509094417296915],[-0.104682506037008,51.50906107343878],[-0.10468437024621,51.5090161536627],[-0.10470221426676,51.508623400068274],[-0.104741890652687,51.5085692023544],[-0.104734287843213,51.50847468469255],[-0.104688052758265,51.50840920966364],[-0.104204575649331,51.50842387048002],[-0.104205910890326,51.50849760991413],[-0.104235354206474,51.50862124859265],[-0.104223468231504,51.508804541986315],[-0.10421346993071,51.50904540176566],[-0.10408922349657,51.509087444253346],[-0.104196530189407,51.5091386237475],[-0.104204252429881,51.509579437419795],[-0.104058058247965,51.50962921609039],[-0.104037350353786,51.50964146730709],[-0.104183149698723,51.50966989510754],[-0.104179934891856,51.50985323873462],[-0.103613564940508,51.50985217328559],[-0.103300847423652,51.50981744951079],[-0.101587789576986,51.509806814445156],[-0.100210581268762,51.50972607915211],[-0.099951784007154,51.509711997794795],[-0.099316418223467,51.509672934837226],[-0.098983414186116,51.50964326474263],[-0.098545350818505,51.50960559747347],[-0.097732758151828,51.50953398551548],[-0.096850121453254,51.509446757437836],[-0.09601614098559,51.50933253352736],[-0.095729880153449,51.50928473400903],[-0.095304245354692,51.509194215437674],[-0.094949029972363,51.50910753617394],[-0.094013993946793,51.50889537359654],[-0.09317088168433,51.50865593010328],[-0.092823436631527,51.50855408768421],[-0.092650939339467,51.50851082750637],[-0.092361125879364,51.508445880934424],[-0.091928154148424,51.50835783776465],[-0.091104973036543,51.50826173438989],[-0.090510234033553,51.5081837287743],[-0.090326740352125,51.5081591651123],[-0.089502783259254,51.508084613804115],[-0.089064036728562,51.50802972892501],[-0.088969500332595,51.50801740053919],[-0.088623530274943,51.50798569161535],[-0.088098612851927,51.50792589260969],[-0.087757369966907,51.50788347018077],[-0.087750283548125,51.50788245563725],[-0.087659640202165,51.50787648266792],[-0.086767450358867,51.507814284471785],[-0.086101288172391,51.50775397023571],[-0.085776404632616,51.50773518299824],[-0.085737654126492,51.5077327525132],[-0.085675825931002,51.507728147327576],[-0.085187412640554,51.50769050709204],[-0.084891053597935,51.5076460221903],[-0.08420701081169,51.50753056613676],[-0.083935410493692,51.507479381136775],[-0.08346647750183,51.50742497094821],[-0.082668888862888,51.5073030653961],[-0.0819212713265,51.5071937485777],[-0.081397467003863,51.50710786662032],[-0.081127070816851,51.50706208878047],[-0.081059846924101,51.50705020086026],[-0.080776698500153,51.50699971854734],[-0.080295294451746,51.50689735456719],[-0.080189888032376,51.50686955812034],[-0.079985033591749,51.50680507247421],[-0.079821595132253,51.506750254579366],[-0.079256712731848,51.50657909439791],[-0.078949904515725,51.506509341116036],[-0.078506704940391,51.50639150339155],[-0.078250584334091,51.506314397804815],[-0.078219186054073,51.50630669128957],[-0.078105341899167,51.50627336067535],[-0.07724483693664,51.50603810161871],[-0.076338064470066,51.50577321932582],[-0.075411464957582,51.50550261056067],[-0.075240567299098,51.5054530578079],[-0.074055886021997,51.50518629331791],[-0.073759219925491,51.50511309687565],[-0.073201087755846,51.50495190710279],[-0.072718331043519,51.50478395223966],[-0.071846701438514,51.50440543903842],[-0.071276891589375,51.50414695571215],[-0.070920940316595,51.50397559479336],[-0.07054555164277,51.50382288194308],[-0.070480405224272,51.50379573903555],[-0.070217945069058,51.503700621235225],[-0.070100104070331,51.50365813706022],[-0.0698654650237,51.50358505235313],[-0.069138401876469,51.5033654142991],[-0.068206666523253,51.50311444143252],[-0.067907630281713,51.50303040293729],[-0.067718395782755,51.50300750708969],[-0.067716971144662,51.50300748361657],[-0.066955042158361,51.502795258535244],[-0.066527058352064,51.50269560590957],[-0.066181266979623,51.50259362115266],[-0.065917639104021,51.50252364645172],[-0.06466233914349,51.50225831844997],[-0.064232289253635,51.502171209332],[-0.063609592240163,51.50207462481846],[-0.063106880006675,51.50200339281537],[-0.062391686472106,51.501914174226215],[-0.060903251996166,51.50171246880335],[-0.060445822219992,51.50169411631183],[-0.060204718481612,51.50167035040546],[-0.060065299421123,51.50166354919127],[-0.059892258437064,51.501665181634294],[-0.05952709694318,51.501714878281476],[-0.058821184815313,51.50181287423362],[-0.058299051736391,51.50189413084054],[-0.05770424509387,51.50199135251073],[-0.057558981346451,51.502018613692016],[-0.057224858393539,51.50208140335913],[-0.056966801982562,51.50215174543813],[-0.056379824998358,51.502302131420855],[-0.0563782434496,51.50230300421386],[-0.055979731770241,51.502390794328825],[-0.055579570405894,51.50251730284906],[-0.055166556304178,51.50267497213492],[-0.054874649576114,51.502795182440565],[-0.054873224955462,51.50279515881152],[-0.053652721169245,51.503440352351106],[-0.052789420189429,51.5039520291438],[-0.052415676137906,51.504166169068235],[-0.052252275621392,51.5042479618249],[-0.051828073343463,51.50446395887225],[-0.051434448046015,51.50467327041152],[-0.049452459998243,51.505834470804146],[-0.048645945617951,51.506296807529615],[-0.048146725410762,51.506582564570664],[-0.046954950392897,51.50722367228852],[-0.046567977150595,51.50740970432051],[-0.046395656756573,51.50749673446334],[-0.045980294703583,51.50770746381925],[-0.045495100722367,51.507934019152096],[-0.045151249585134,51.50805333981147],[-0.044326310254623,51.50827251871747],[-0.043931536727146,51.5083711186436],[-0.043611757737208,51.5084359070882],[-0.043348943306666,51.508480068933856],[-0.042715118595206,51.508542312068215],[-0.042103590983066,51.50858883182458],[-0.041886920000956,51.50859869951633],[-0.041338297899681,51.50862459952227],[-0.040929956819754,51.50863486024544],[-0.040582593197709,51.50863624927304],[-0.040234228854709,51.50862773148565],[-0.03961758007137,51.50862461749538],[-0.038850595262957,51.5086001072901],[-0.038193851393706,51.50855675905882],[-0.0378721471712,51.508497436860644],[-0.037484465544513,51.50843062679376],[-0.037246504686772,51.50836910816031],[-0.036706527183373,51.508224319978524],[-0.035960793746088,51.508073296773354],[-0.035586027748732,51.50794115911288],[-0.034967114479186,51.50772303021261],[-0.034338762776761,51.50752280983789],[-0.033542608600063,51.507271136259625],[-0.033048873309356,51.50715947066006],[-0.032769872083815,51.5070800834858],[-0.032430316831628,51.50699976963156],[-0.032203514808461,51.506880891426285],[-0.031807874932797,51.506662895717746],[-0.031741710558125,51.50662672401876],[-0.031654410461905,51.50654614619855],[-0.031551246511422,51.506467010154175],[-0.031424927462951,51.50638757524117],[-0.031284281750597,51.5063070006797],[-0.031052116867509,51.50624376861297],[-0.030840032041448,51.5061502170987],[-0.03075854352285,51.506102999439086],[-0.030658382597951,51.506020406884936],[-0.030613059319632,51.50596660435935],[-0.030592458549945,51.505942884223266],[-0.030502014988821,51.50583609161497],[-0.030317524634037,51.50567027284949],[-0.030081222791569,51.50540280476268],[-0.02999819020184,51.50522340652593],[-0.02990848318475,51.50509684763876],[-0.029837239100061,51.50491135425377],[-0.029714989030041,51.50463860926747],[-0.029601397726033,51.5043992728971],[-0.029586848013691,51.5043702601931],[-0.029593205433235,51.50435508387957],[-0.029636606346536,51.50425233730598],[-0.029662113930586,51.50406037823231],[-0.029606296869684,51.50381751746108],[-0.029551080245622,51.50349465505114],[-0.029454500688811,51.50302905434361],[-0.029383601100034,51.50273379752309],[-0.029372560081777,51.5026895606065],[-0.029388178211852,51.50262770160641],[-0.029421724998752,51.50248622206766],[-0.029431932161504,51.502348755473584],[-0.029455878373732,51.50209383959877],[-0.02956283134378,51.50111814531379],[-0.029695623022019,51.50014369405316],[-0.02985264437218,51.499543816840024],[-0.029890377773924,51.49926935423681],[-0.029938949597594,51.49894463932771],[-0.03002266328349,51.498408258862035],[-0.030030688730989,51.49805409447124],[-0.03004241542074,51.49754796990463],[-0.030110259983358,51.4971453648748],[-0.030123833213063,51.497061985087406],[-0.03020427361814,51.49606687518022],[-0.030218336706183,51.49574068135076],[-0.030214777444481,51.49548710110153],[-0.030207041745796,51.49533315076084],[-0.030141983353393,51.494671106621496],[-0.030034586646523,51.49408746390637]]]]},"properties":{"url":"http://elections.democracyclub.org.uk/api/organisations/local-authority/SWK/1965-04-01/geo/","official_identifier":"SWK","organisation_type":"local-authority","organisation_subtype":"LBO","official_name":"London Borough of Southwark","common_name":"Southwark","slug":"southwark","territory_code":"ENG","election_name":"Southwark local election","start_date":"1965-04-01","end_date":null,"created":"1965-04-01T00:00:00Z","modified":"2021-10-11T14:59:26.370579Z"}}